corp_name,corp_uid,original_name,lat,lng,location,nace_code,postcode,street,nh3_yeartotal,nh3_2015,has_local_subsidies,has_subsidies
Letschiner Agrar GmbH,e91926f5-f906-4090-a236-ad3181a0ca4a,Letschiner Agrar GmbH,52.631517689755896,14.3967641687201,Letschin,147.0,15324,Quappendorferstraße 2,109700.0,28800.0,1,1
"Westers, Rainer",7395e7e7-eaa1-44e8-a83e-1e3fd6efd7f0,"Westers, Rainer",52.1554091312532,7.45152449649351,Steinfurt,146.0,48565,Ostendorf 91,46400.0,11600.0,1,1
Gut Jäglitz GmbH & Co. Brügge KG,43016ed4-7363-43cf-aa97-d406cd884284,Gut Jäglitz GmbH & Co. Agrar KG,53.2454459189795,12.2625210291943,Halenbeck-Rohlsdorf,147.0,16945,Flur 1,152100.0,32400.0,0,0
Agrarprodukte Löbnitz GmbH,443aff9f-e0fe-4d0a-9d9c-ac0899c0bed1,"Agrarprodukte Löbnitz GmbH, SZA Löbnitz",51.585698289590795,12.461666092253301,Löbnitz,146.0,4509,Delitzscher Str. 32,66300.0,13400.0,0,0
Horst-Friedrich Hölling,5e0dc969-40df-4396-9ef3-4e0e5f37337e,Horst-Friedrich Hölling,52.09003116397861,9.61460390208743,Salzhemmendorf,146.0,31020,Gemarkung Hemmendorf Flur 4,80000.0,16000.0,1,1
Ralf Schneider,f25f3aa4-a733-45ab-8c9e-0d6327ae8a94,Gut Tier- und Pflanzenproduktion GmbH Rövershagen Schweineanlage,54.170607222696106,12.2723071190396,Rövershagen,146.0,18182,Haus 12a,188500.0,41200.0,1,1
Ralf Schneider,f25f3aa4-a733-45ab-8c9e-0d6327ae8a94,Gemischte Tierhaltung Hohen Wangelin,53.618556170352,12.4639001704981,Hohen Wangelin,146.0,17194,Malchower Chaussee 1,103000.0,24500.0,1,1
Landgut Heideland e.G.,7a275474-87ef-4b48-bc2f-1d562c1759a1,Landgut Heideland,51.801502057061704,13.091558153446698,Jessen OT Mönchenhöfe,146.0,6917,Mönchenhöfner Dorfstraße 2,182800.0,39800.0,0,0
Leicoma PIG-Zucht GmbH Polkenberg,1ae306ee-7b01-4501-ba33-6fccc9eeddce,"Leicoma PIG-Zucht GmbH Polkenberg, SZA Görnitz",51.1868502250048,12.9387749999449,Bockelwitz,146.0,4703,Mügelner Landstraße 1,68400.0,14500.0,0,0
Agp-GmbH Lübesse,4459a639-c90d-43b3-a6b6-7e554c99a5e5,Agp-mbH Agrarproduktgesellschaft,53.501004701257706,11.0684891844055,Wittenburg,150.0,19243,Lehsener Str. 5,198500.0,39700.0,0,0
Agrargenossenschaft  Gräfendorf e.G.,d7070f52-2904-40ae-b1e6-f2b9b6b058b6,Schweinemastanlage Großrössen,51.6308693824819,13.2416737653531,Falkenberg/Elster,146.0,4895,Südstraße None,70000.0,14000.0,0,0
Hansen Broilermast GmbH & Co. KG,4b3572c0-8efc-413f-abce-99573d6376c1,Hansen Broilermast GmbH & Co. KG,53.0017202794522,7.255133625421799,Heede,147.0,26892,Birkenweg 20,119500.0,25700.0,1,1
Gisela Schulze Tenkhoff,1a742bc0-af80-4509-8d60-a13c003d976f,"Schulze Tenkhoff, Gisela",51.7319664219482,7.96430469828328,Beckum,146.0,59269,Elker 8,67200.0,11700.0,1,1
"Rietmann, Achim",1afbb7ce-89d7-4592-b2af-0b01cdcd3754,"Rietmann, Achim",52.34486400998789,7.5243655883093,Hörstel,146.0,48477,Papenweg 99,45200.0,11300.0,1,1
Heinrich Gabriel,88d6af83-6a91-4f27-bafb-10a7154cca98,Heinrich Gabriel,51.643736770391904,9.230655401432019,Borgentreich,146.0,34434,Rösebecker Str. None,10900.0,10900.0,1,1
Hopman GmbH Wanzlitz,19041c36-2029-4b74-a6e2-a7560dc56ee7,Hopman GmbH Wanzlitz Hopman GmbH Wanzlitz,53.247387081276905,11.492717403912101,Grabow,146.0,19300,Ausbau 1,330300.0,69800.0,0,0
Hopman GmbH Wanzlitz,19041c36-2029-4b74-a6e2-a7560dc56ee7,Hopman GmbH Wanzlitz Hopman GmbH Wanzlitz,53.298037287117005,11.6651955427723,Zierzow,146.0,19300,Betriebsgelände 1,118900.0,23900.0,0,0
Agrargenossenschaft Deutschenbora e.G.,23a0bb80-bdf9-4014-97a1-679406d9cae5,AG Deutschenbora e.G.,51.0569364370646,13.3606273430436,Nossen,146.0,1683,Straße des Fortschritts 2,82900.0,14200.0,0,0
Agrar eG Heberndorf,3d286d06-4d67-4b9a-8f61-625b3d5e1bf9,Schweinemastanlage Heberndorf,50.4841041388842,11.5284569213326,Wurzbach,146.0,7343,Heberndorf 100,128000.0,24900.0,1,1
Georg Lautenschlager,1b679c5d-0d37-46fe-b05b-2811b4909d1e,Geflügelhaltung Gut Siegenthann GmbH & Co. KG,49.3241101590567,12.012681965789303,Schwandorf,147.0,92421,Siegenthann 1,23400.0,11200.0,1,1
Schweinemast Poppel GmbH & Co. KG,1d18cf07-d57c-46ff-9f27-a347286d2844,Schweinemast Poppel GmbH & Co. KG - Poppel,51.1290742956798,11.6296588432531,Lanitz-Hassel-Tal,146.0,6628,Poppel 27,111000.0,22200.0,1,1
Agrar GmbH Auligk,b8de306e-2293-4576-988f-7267c4097cc7,Agrar GmbH Auligk,51.1121636887224,12.242686471086,Groitzsch,146.0,4539,Furstück 24/1,41000.0,11000.0,0,0
"Sengenhorst, Peter",09cb18d6-2ed4-4ec5-81cc-2ecbe4f9e402,"Sengenhorst, Peter",51.86156717523439,7.8860760843632605,Warendorf,146.0,48231,Holtrup 13,70500.0,14100.0,1,1
AGRO-Agrarprodukte GmbH,bbf0e2ae-f585-4395-9ebf-9e7a7a869aae,AGRO-Agrarprodukte GmbH,51.0810315627711,12.8557582144104,Zettlitz,146.0,9306,Straße der Jugend 34,45400.0,11100.0,0,0
Sauenhaltung Thierbach GmbH,2d40c197-a483-4626-b60e-960c7e142906,"Sauenhaltung Thierbach GmbH, Wellaune",51.5631104354364,12.5580157842602,Bad Düben,146.0,4849,Eilenburger Str. 1,109500.0,22100.0,0,0
Sauenhaltung Thierbach GmbH,2d40c197-a483-4626-b60e-960c7e142906,Sauenhaltung Thierbach GmbH,50.583404377867204,11.9527606090763,Pausa-Mühltroff,146.0,7952,Wallengrüner Straße 1 - 3,94300.0,20800.0,0,0
"Storm, Albert",053b9583-5a47-44c5-b7d6-32dd98a5d29d,"Storm, Albert",52.313678284670104,7.47101941074277,Rheine,146.0,48429,Heideweg 1,29000.0,14500.0,1,1
LGH Landwirtschaftliche Gesellschaft mbH,d4240042-14f8-407c-8c4f-826a4e1eb4b0,LGH Landwirtschaftliche Gesellschaft mbH,51.2984172424145,14.262673614037599,Ralbitz-Rosenthal,146.0,1920,Eutricher Str. 1,83000.0,21500.0,0,0
Jan Nico Hagge,9d5bdb60-a411-4dd5-8ebf-51360c95b6e5,Schweinemastanlage Sukow Jan Nico Hagge,53.5568211963294,11.5628603767555,Sukow,146.0,19079,Bahnhofstraße 1a,11400.0,11400.0,1,1
Spreenhagener Vermehrungsbetrieb für Legehennen GmbH,9d61d8ac-d4c9-4342-9480-baa71c17c1dd,"Legehennenanlage Radeburg ""Waldrose""",51.2429678094454,13.7313122409936,Ebersbach,147.0,1561,Zschornaer Straße 4,128300.0,22200.0,1,1
Spreenhagener Vermehrungsbetrieb für Legehennen GmbH,9d61d8ac-d4c9-4342-9480-baa71c17c1dd,Agrar Handelsgesellschaft Salzfurtkapelle mbH & Co. KG,52.729744787264394,8.207618705839549,Bakum,147.0,49456,Heckenweg 2,78000.0,15600.0,1,1
Spreenhagener Vermehrungsbetrieb für Legehennen GmbH,9d61d8ac-d4c9-4342-9480-baa71c17c1dd,"Agrar Handelsgesellschaft Salzfurtkapelle mbH & Co. KG, Brachstedt",51.5696788949951,11.9975899393211,Petersberg,147.0,6193,Oppiner Straße None,130000.0,26000.0,1,1
Spreenhagener Vermehrungsbetrieb für Legehennen GmbH,9d61d8ac-d4c9-4342-9480-baa71c17c1dd,Spreenhagener Vermehrungsbetrieb für Legehennen GmbH,52.2365381378269,13.5974372176673,Bestensee,147.0,15741,Unter den Eichen None,188300.0,38300.0,1,1
Spreenhagener Vermehrungsbetrieb für Legehennen GmbH,9d61d8ac-d4c9-4342-9480-baa71c17c1dd,Agrar Handelsgesellschaft Salzfurtkapelle mbH & Co. KG; AZ II-Hähnchenmast,51.3963694261545,12.5207739004848,Taucha,147.0,4425,Eilenburger Straße An der B 87,107000.0,21400.0,1,1
Spreenhagener Vermehrungsbetrieb für Legehennen GmbH,9d61d8ac-d4c9-4342-9480-baa71c17c1dd,Spreenhagener Vermehrungsbetrieb für Legehennen GmbH,52.343635445237204,13.9233827656037,Spreenhagen,147.0,15528,Alte Fürstenwalder Straße 7,129900.0,27600.0,1,1
Spreenhagener Vermehrungsbetrieb für Legehennen GmbH,9d61d8ac-d4c9-4342-9480-baa71c17c1dd,Hähnchenmastanlage Waldeck,50.9153917566724,11.8058198508323,Waldeck,147.0,7646,Serbaer Str. 1,109900.0,10700.0,1,1
Spreenhagener Vermehrungsbetrieb für Legehennen GmbH,9d61d8ac-d4c9-4342-9480-baa71c17c1dd,SAFU Agrar Handelsgesellschaft Salzfurtkapelle mbH & Co. KG,51.5134082887366,12.791349024600501,Mockrehna,147.0,4838,Am Stich None,166100.0,35000.0,1,1
Spreenhagener Vermehrungsbetrieb für Legehennen GmbH,9d61d8ac-d4c9-4342-9480-baa71c17c1dd,Agrar Handelsgesellschaft Salzfurtkapelle mbH & Co. KG;  Hähnchenmastanlage Liemehna,51.44828029545801,12.541221398708599,Jesewitz,147.0,4838,Zschettgauer Str. None,59000.0,11800.0,1,1
Spreenhagener Vermehrungsbetrieb für Legehennen GmbH,9d61d8ac-d4c9-4342-9480-baa71c17c1dd,Spreenhagener Vermehrungsbetrieb für Legehennen GmbH,52.218657463627004,13.6129031761043,Bestensee,147.0,15741,Motzener Str. 111,229600.0,23100.0,1,1
Spreenhagener Vermehrungsbetrieb für Legehennen GmbH,9d61d8ac-d4c9-4342-9480-baa71c17c1dd,"Agrar Handelsgesellschaft Salzfurtkapelle mbH & Co. KG, Oppin",51.5492004330295,11.9999792092146,Landsberg,147.0,6188,Oppiner Straße None,203000.0,40600.0,1,1
Spreenhagener Vermehrungsbetrieb für Legehennen GmbH,9d61d8ac-d4c9-4342-9480-baa71c17c1dd,"Agrar Handelsgesellschaft Salzfurtkapelle mbH & Co.KG,  Stedten",51.43814877716871,11.7341413973163,Seegebiet Mansfelder Land,147.0,6317,Industriestraße 10,155000.0,31000.0,1,1
"Brimmers, Josef",f12ec4ef-d9d5-4cf1-ac00-85b6bcfd277c,"Brimmers, Josef",51.44541139657139,6.37137074695848,Kerken,146.0,47647,Slousendyck 11,58500.0,16400.0,1,1
Agrargenossenschaft Abtsbessingen e.G.,f8fba9e1-636c-4051-9aca-a8e02e8acfd8,Agrargenossenschaft Abtsbessingen e.G.,51.2567774980799,10.762659799456598,Abtsbessingen,146.0,99713,Billeber Straße 1A,56500.0,11300.0,1,1
WIMEX Agrarprodukte Import & Export GmbH,bce0b37e-b94a-452c-8356-323f39420594,WIMEX Agrarprodukte Import u. Export GmbH - Farm Thannhof,49.2174646157224,12.2341588535738,Nittenau,147.0,93149,Oed 1,458200.0,85400.0,1,1
WIMEX Agrarprodukte Import & Export GmbH,bce0b37e-b94a-452c-8356-323f39420594,WIMEX Agrarprodukte Import u. Export GmbH - Farm Stadl,49.2292334157805,12.2761972486728,Nittenau,147.0,93149,Stadl 28,178200.0,32900.0,1,1
WIMEX Agrarprodukte Import & Export GmbH,bce0b37e-b94a-452c-8356-323f39420594,Legehennenstallanlage  Gut Falkenhain,51.06978970106029,12.296668949893201,Meuselwitz,147.0,4613,Alte Rusendorfer Str. None,203200.0,37900.0,1,1
WIMEX Agrarprodukte Import & Export GmbH,bce0b37e-b94a-452c-8356-323f39420594,WIMEX Agrarprodukte Import & Export GmbH,51.725037949163294,11.9485713151374,Wülknitz,147.0,6366,Landstraße None,167600.0,41900.0,1,1
WIMEX Agrarprodukte Import & Export GmbH,bce0b37e-b94a-452c-8356-323f39420594,WIMEX Agrarprodukte Import & Export GmbH,51.9676193971968,11.9469760350455,Walternienburg,147.0,39261,An den Sandbergen None,125500.0,23400.0,1,1
WIMEX Agrarprodukte Import & Export GmbH,bce0b37e-b94a-452c-8356-323f39420594,WIMEX Agrarprodukte Import & Export GmbH,51.7956217642639,12.1361910622375,Dessau-Roßlau,147.0,6847,Teichdammweg 5,570000.0,114000.0,1,1
WIMEX Agrarprodukte Import & Export GmbH,bce0b37e-b94a-452c-8356-323f39420594,WIMEX Agrarprodukte Import & Export GmbH,52.011656026247216,11.953324889588801,Gehrden,147.0,39264,Hauptstraße 1,163000.0,32600.0,1,1
WIMEX Agrarprodukte Import & Export GmbH,bce0b37e-b94a-452c-8356-323f39420594,WIMEX Agrarprodukte Import & Export GmbH,51.69302207138779,11.903332774944598,Pfaffendorf,147.0,6388,Dorfstraße None,147200.0,35400.0,1,1
WIMEX Agrarprodukte Import & Export GmbH,bce0b37e-b94a-452c-8356-323f39420594,WIMEX Agrarprodukte Import & Export,53.8149198875965,11.429173582799999,Groß Stieten,147.0,23972,An der Chaussee 4,750000.0,139000.0,1,1
WIMEX Agrarprodukte Import & Export GmbH,bce0b37e-b94a-452c-8356-323f39420594,WIMEX Agrarprodukte Import & Export GmbH,51.7104054802135,11.938845476617699,Edderitz,147.0,6388,Dorfstraße None,108100.0,32500.0,1,1
WIMEX Agrarprodukte Import & Export GmbH,bce0b37e-b94a-452c-8356-323f39420594,WIMEX Agrarprodukte Import & Export GmbH,51.798383735378295,11.887050658334001,Kleinpaschleben,147.0,6369,Drosaer Straße None,167600.0,41900.0,1,1
WIMEX Agrarprodukte Import & Export GmbH,bce0b37e-b94a-452c-8356-323f39420594,WIMEX  Agrarprodukte Import & Export GmbH,51.719941344641796,11.978736214420199,Baasdorf,147.0,6388,Köthener Straße 26,167600.0,41900.0,1,1
WIMEX Agrarprodukte Import & Export GmbH,bce0b37e-b94a-452c-8356-323f39420594,WIMEX Agrarprodukte Import & Export GmbH,51.608130936768106,11.891857610058901,Nauendorf OT Merbitz,147.0,6193,Im Institut None,151800.0,28300.0,1,1
WIMEX Agrarprodukte Import & Export GmbH,bce0b37e-b94a-452c-8356-323f39420594,WIMEX Agrarprodukte Import & Export GmbH,51.7093269123765,11.984451903803,Baasdorf,147.0,6388,Feldstraße 5,192400.0,39200.0,1,1
WIMEX Agrarprodukte Import & Export GmbH,bce0b37e-b94a-452c-8356-323f39420594,Gutshof-Ei-Banzkow GmbH (WIMEX Agrarprodukte Import und Export GmbH),53.6077284959948,11.280345408395801,Grambow,147.0,19071,Tannenburger Weg None,80700.0,80700.0,1,1
WIMEX Agrarprodukte Import & Export GmbH,bce0b37e-b94a-452c-8356-323f39420594,WIMEX Agrarprodukte Import & Export  GmbH,51.794685532400294,11.9289068457096,Maxdorf,147.0,6369,Dorfstraße None,119500.0,22300.0,1,1
Märschendorfer Verwaltungsbetriebe GmbH Tepe,2b3086bf-4172-4329-8319-05c5e722dd9d,Märschendorfer Verwaltungsbetriebe GmbH Tepe,52.6947160220255,7.98540790616812,Essen (Oldenburg),147.0,49632,Schlochterdamm 12,27000.0,27000.0,0,0
Ferkelzuchtbetrieb Reichenbach GmbH & Co. KG,932c9337-6fe6-4156-a96b-61dc6c03ae76,Ferkelzuchtbetrieb Reichenbach GmbH & Co. KG,51.0529442518066,13.095025123068199,Kriebstein,146.0,9648,Waldheimer Strasse 23 a,86900.0,21600.0,1,1
GF J. Straathof,76b38436-5d54-41cc-bdcf-b37c813a963f,Quickhof Woeten GmbH & Co.KG Standort Woeten,53.5317104018464,11.890324224625699,Obere Warnow,146.0,19374,Grebbiner Straße 3,82000.0,16400.0,0,0
GF J. Straathof,76b38436-5d54-41cc-bdcf-b37c813a963f,Quickhof GmbH & Co.KG Standort Wendisch Priborn,53.331775247630794,12.317422712193,Wendisch Priborn,146.0,19395,Altenhofer Weg 1,201400.0,41400.0,0,0
Filthaut Walter,5c825413-3cc6-4eba-8d30-f2e2765a8546,Filthaut Walter,51.5264674590166,7.81080687448831,Unna,146.0,59427,Vinning 6,43200.0,10800.0,1,1
Agrarprodukte GmbH Zilly,160e79ae-a851-4150-9150-341cff54ca09,Agrarprodukte GmbH Zilly,51.950069141226905,10.8203650119031,Zilly,146.0,38835,Heudeber Weg 4,159300.0,52800.0,1,1
Mecklenburger Broiler-Farm GmbH,bce0b37e-b94a-452c-8356-323f39420594,Mecklenburger Broiler-Farm GmbH,54.0437747830371,11.6904415856743,Biendorf,147.0,18233,Gewerbestr. 4,35400.0,12400.0,1,1
Mecklenburger Broiler-Farm GmbH,bce0b37e-b94a-452c-8356-323f39420594,Mecklenburger Broiler-Farm GmbH,54.0545956054195,11.721706547716598,Biendorf,147.0,18233,Hauptstraße 18,156600.0,29000.0,1,1
Hoyaer Ferkelaufzucht GmbH & Co KG,c0797d5c-7dc7-4ecb-8214-318a3e065684,Schweinezuchtanlage Kölsa,51.566758226185996,13.2164300604772,Falkenberg/Elster,146.0,4895,Birkenweg 1,21900.0,11300.0,0,0
Georg Strätker,f20c79b5-986a-4959-9ad7-55d8fbc70257,Broiler-Mast Strätker GmbH & Co. KG,52.8575239330873,7.24085663516384,Niederlangen,147.0,49779,Moorweg 2,67200.0,12400.0,1,1
"Gut Arendsee GbR Matiaske, Schultz, Kummer",446a962c-f492-4385-b8b3-4a72841124a6,"Gut Arendsee GbR Matiaske, Schultz, Kummer",53.3346692693223,13.6018735194855,Nordwestuckermark,146.0,17291,Hauptstraße 41,143200.0,26300.0,0,0
Van der Velde Agrar GmbH,40c3f238-9495-4d88-87ec-47645a2c5768,Van der Velde Agrar GmbH,51.920236347994795,10.7622679224787,Nordharz,146.0,38871,Zyllier Weg 6,32500.0,10500.0,1,1
Van der Velde Agrar GmbH,40c3f238-9495-4d88-87ec-47645a2c5768,Van der Velde Agrar GmbH,51.910862899714786,11.486156527978801,Hecklingen,146.0,39435,Am Bruchtor 20,172600.0,28300.0,1,1
Van der Velde Agrar GmbH,40c3f238-9495-4d88-87ec-47645a2c5768,Van der Velde Agrar GmbH,51.930810211202896,11.2614737545088,Gröningen,146.0,39397,Heyneburger Weg 52,74100.0,13800.0,1,1
Köcher KG,6e2777d2-e669-4956-b934-3f7cca834330,Köcher KG,52.4194674571373,11.310288483767,Berenbrock,146.0,39638,An der Schweinemastanalge None,145100.0,29000.0,0,0
"Peters, Willi-Johann",51f0ff01-4b8e-47f3-92b0-32da7c4e2ad7,"Peters, Willi-Johann",52.9804128014676,7.80651315866112,Friesoythe,146.0,26169,Sportplatzstraße 4,43600.0,10900.0,1,1
"Tegelmann, Monika",b681f408-1192-41b2-9cf8-d92e6134b6d1,"Tegelmann, Monika",52.327142971198995,7.636645815263479,Ibbenbüren,146.0,49479,Uffelner Esch 15,61200.0,15300.0,1,1
Agrofarm Herwigsdorf e. G.,09c772c2-4205-4b8e-8009-17c84d053ad3,Agrofarm Herwigsdorf e. G.,51.058687654491386,14.7497466999618,Rosenbach,146.0,2708,Steinbergstr. 22,72800.0,18200.0,0,0
Agrofarm Herwigsdorf e. G.,09c772c2-4205-4b8e-8009-17c84d053ad3,Agrofarm Herwigsdorf e. G.,51.0755748091302,14.7371797811072,Rosenbach,146.0,2708,Steinbergstr. 11,72800.0,18200.0,0,0
Wirth Geflügelmast GmbH,75ead6f8-43a2-4898-b037-8fc1e18a68d0,Farm Hofing I,49.2538204887496,12.247327740530501,Bruck i.d.OPf.,147.0,92436,Hofing None,61400.0,11500.0,0,0
Wirth Geflügelmast GmbH,75ead6f8-43a2-4898-b037-8fc1e18a68d0,Farm Hofing III,49.2495192786822,12.3067993558812,Bruck i.d.OPf.,147.0,92436,Hofing None,115000.0,23000.0,0,0
Pelapro Agrarprodukte GmbH Peckfitz,558913c6-93d6-4a38-827a-c6ea11000def,PELAPRO Pigs GmbH,52.50499602756421,11.1929070428325,Gardelegen,146.0,39649,Am Wald 1,248800.0,53100.0,1,1
"Leurs, Tobias",979dfe28-fdaa-49ec-a848-96aa3d6ad1e7,"Leurs, Tobias Margarethenhof",50.80422112363279,6.67431753902873,Nörvenich,146.0,52388,Margarethenhof an d. L. 263,79400.0,15800.0,0,0
Wildberger Schweinefleisch GmbH,eb8e0354-c050-43c4-a2c9-155bf2e5c6bd,Wildberger Schweinefleisch GmbH,52.878584517741785,12.6102339050599,Temnitztal,146.0,16845,Bückwitzer Straße 28,57600.0,11700.0,1,1
Georg Wigger-Pieper KG Gorsleben,3cedb8ae-20a9-45e1-8be9-8fa17ba23b40,Sauenanlage Gorsleben,51.2767013282524,11.188630025368301,Gorsleben,146.0,6577,Harraser Weg 165 d,52500.0,12600.0,0,0
Antonius Enseling,bdd56cc7-0e01-4353-859f-6d1dacb0a6fb,"Enseling, Tonius und Mechthild GbR",52.047969077796296,7.19270701610677,Schöppingen,146.0,48624,Heven None,25300.0,13300.0,0,0
Bayern Ei GmbH & Co. KG,4040e896-eab6-4e2f-8da1-78a27db5fb09,Bayern Ei GmbH & Co. KG Farm Tabertshausen,48.735749753933,12.9120883391413,Aholming,147.0,94527,Eichendorfer Str. 23,104400.0,22500.0,0,0
Bayern Ei GmbH & Co. KG,4040e896-eab6-4e2f-8da1-78a27db5fb09,Bayern Ei GmbH & Co. KG Farm Niederharthausen,48.831981933737204,12.654114864700999,Aiterhofen,147.0,94330,Niederharthausen 50,157900.0,21300.0,0,0
Bayern Ei GmbH & Co. KG,4040e896-eab6-4e2f-8da1-78a27db5fb09,Bayern Ei GmbH & Co. KG Farm Ettling,48.7131757666619,12.783024892384,Wallersdorf,147.0,94522,Ettlinger Moos 10,135200.0,31200.0,0,0
Schweineproduktion Brenkenhof GmbH,cf4eb96b-058c-4b01-a544-08fcb3a2eaed,Schweineproduktion Brenkenhof GmbH,53.83908991833661,13.5094944688944,Medow,146.0,17391,Kriener Landstr. 1,89400.0,43400.0,0,0
Schweinezucht Binde GmbH,b82bd0d1-f479-4c62-8e4a-5ff7986ab11a,Schweinezucht Binde GmbH,52.8454522650794,11.396782045918698,Binde,146.0,29416,Schernikauer Str. 10 None,214000.0,49200.0,0,0
Schweinezucht Binde GmbH,b82bd0d1-f479-4c62-8e4a-5ff7986ab11a,Schweinezucht Fahrbinde GmbH,53.445159802468396,11.4957865401439,Rastow,146.0,19288,An der Landstraße 92,95800.0,34200.0,0,0
Hardkop-Ziemann GbR,bd48ff76-b18d-4839-86f5-baca9564c087,Sigurd Hardkop Ziemann Biogas Sigurd Hardkop Ziemann Biogas,53.4424796564871,11.873549579206099,Parchim,147.0,19370,Lübzer Chaussee 9a,67100.0,18100.0,0,0
Wolfgang Zachow,7055f962-d1bc-48fb-a953-8c17d5a61b51,Wolfgang Zachow,53.1340455541536,11.9062795413865,Perleberg,146.0,19348,Gut Gramzow None,42700.0,10200.0,1,1
Seifersbacher Marktfrucht GmbH,077c2958-c81c-452d-be33-f721c665b23b,Seifersbacher Marktfrucht GmbH,50.9734959321655,13.0487494486201,Rossau,146.0,9661,Am Wald None,61200.0,12600.0,0,0
Seifersbacher Marktfrucht GmbH,077c2958-c81c-452d-be33-f721c665b23b,Schweinemastanlage Berthelsdorf GmbH Seifersbacher Marktfrucht GmbH,50.9587641008424,12.7841515137179,Lunzenau,146.0,9322,Göritzhainer Straße 14,72500.0,14700.0,0,0
Landwirtschaftsbetrieb Schwasdorf e.G.,cdb7cabf-a1ad-4422-8c35-15e8a290a8ea,Landwirtschaftsbetrieb Schwasdorf e.G.,53.89544143553571,12.6269847757531,Schwasdorf,146.0,17168,Kastanienallee 17,53500.0,10700.0,0,0
Emerald Irish Pork GmbH,f8d7a0d6-6a03-469f-af63-c492beab24ac,Emerald Irish Pork GmbH,52.378495166040494,12.6219968587741,Kloster Lehnin,146.0,14797,Rietzer  Berg 5,303300.0,68300.0,0,0
"Helmingsmeier, Friedrich",02b285c0-4ec0-489a-8b92-50d95ca885f3,"Helmingsmeier, Friedrich",52.1482464100891,8.97986073261132,Kalletal,146.0,32689,Am Lehmstich 32,39500.0,39500.0,1,1
DEMVA GmbH,0ade18b1-6516-4b3b-a077-684e83765362,DEMVA GmbH,52.3188905192967,12.098133549774001,Kleindemsin,146.0,39307,Dorfstraße 12 None,561700.0,80000.0,0,0
Wilhelm Pohlmann,bf459b3e-53c4-439e-ac2f-fb05a0874236,KG Rießel Ei GmbH & Co KG,52.795161928628,8.27901369776915,Vechta,147.0,49377,Mühlendamm 31,180700.0,36000.0,1,1
Wilhelm Pohlmann,bf459b3e-53c4-439e-ac2f-fb05a0874236,Kroger Gefra-Ei GmbH & Co KG,52.637382517213204,8.26664076579125,Lohne (Oldenburg),147.0,49393,Sommerweg 22,110000.0,22000.0,1,1
Wilhelm Pohlmann,bf459b3e-53c4-439e-ac2f-fb05a0874236,Wilhelm Pohlmann,52.69671105608371,8.29524216942523,Vechta,147.0,49377,Alter Zuschlag 1,170800.0,40200.0,1,1
Wilhelm Pohlmann,bf459b3e-53c4-439e-ac2f-fb05a0874236,"Pohlmann, Wilhelm",52.83193558236171,7.796158652309789,Lindern (Oldenburg),147.0,49699,Zum Berg 9,77200.0,19300.0,1,1
Mörsdorfer Agrar GmbH,a517c3c1-d5fb-4ab8-8140-ed85850bfba2,Sauenzuchtanlage Mörsdorf,50.86684895855871,11.804594124216,Mörsdorf,146.0,7646,Auf dem Berg 100,87500.0,19100.0,1,1
Helmut Werner,c66e1565-766f-461a-92da-bfe180fa0ee2,"Werner, Helmut",53.035981267866,7.959876097976661,Bösel,146.0,26219,Im Wiesengrund 3,71000.0,14200.0,1,1
AFB Agrar GmbH Flämingland Blönsdorf,bd78d4a7-3dec-4343-b679-b92a68360c0c,AFB Agrar GmbH Flämingland Blönsdorf,51.9702805003965,12.8657396495509,Niedergörsdorf,146.0,14913,Kurzlipsdorf 13a,51600.0,12900.0,0,0
Tobias Heimann GbR,167194a2-7ed2-4762-9d75-5551f9d85ad6,Tobias Heimann GbR,51.6725170109494,8.82584320969938,Borchen,146.0,33178,Kirchborchener Str 71,41200.0,10300.0,1,1
Bauern AG Neißetal,0520cb3a-6eeb-46e0-aa08-b9ca9bda36f6,Schweinemastanlage Bärenklau,51.929971982774404,14.5599895184797,Schenkendöbern,146.0,3172,Kirschallee 3,93600.0,12700.0,1,1
Bauern AG Neißetal,0520cb3a-6eeb-46e0-aa08-b9ca9bda36f6,Schweinezuchtanlage Gröden,51.4029128727261,13.5863710562971,Gröden,146.0,4932,Mittelweg 7,137800.0,28300.0,1,1
Bauern AG Neißetal,0520cb3a-6eeb-46e0-aa08-b9ca9bda36f6,Schweinezuchtanlage Grießen,51.8510743639386,14.587299163015599,Jänschwalde,146.0,3172,Dorfstraße 71,46700.0,10900.0,1,1
Klixer Edelfleisch GmbH,69eab43e-1a7d-4de1-97e2-bb04bb1a6902,Klixer Edelfleisch GmbH,51.2583712488802,14.5002649575649,Großdubrau,146.0,2694,Hauptstr. 57,265700.0,62900.0,1,1
"Schulze Wülfing, Theo",4135fc79-22a9-4e1f-a87a-743bcfc0bdaa,"Schulze Wülfing, Theo",51.8298510417268,7.34378335933128,Dülmen,146.0,48249,Rödder 16,64600.0,12300.0,1,1
M & F Schweinemast KG,81137e6f-bf3b-4b28-98c3-6a0b502f9f4d,M & F Schweinemast KG,53.7717421275657,11.291301992364,Testorf-Steinfort,146.0,23936,Lindenallee 2,31500.0,10500.0,1,1
"Essink, Helma",b78899e8-0c71-4773-9cf9-eed17c46568e,Essink Helma,52.495581515001405,7.04340985988986,Nordhorn,146.0,48527,Fuhlendiek None,42000.0,10500.0,1,1
"SecAnim GmbH, NL Malchin",6cf9ee29-d575-4283-a09b-fb9ecdb8af0c,"SecAnim GmbH, NL Malchin",53.7200909602666,12.8150817390781,Malchin,162.0,17139,An der Landwehr None,0.0,0.0,0,0
Agrargenossenschaft Züllsdorf eG.,de080952-a747-43de-9c91-72cb0456a992,Schweinemastanlage Löhsten,51.61114186343221,13.136320788980901,Herzberg/Elster,146.0,4916,An der Roten Lache 1,146600.0,33200.0,1,1
Agrargenossenschaft Züllsdorf eG.,de080952-a747-43de-9c91-72cb0456a992,Schweinemastanlage Röblitz,50.665444819313095,11.4142013369482,Unterwellenborn,146.0,7333,Zeilberg None,103600.0,18900.0,1,1
Agrargenossenschaft Züllsdorf eG.,de080952-a747-43de-9c91-72cb0456a992,Agrargenossenschaft Helmsdorf e.G. Agrargenossenschaft Helmsdorf e.G.,51.606960472771995,11.611218878329,Gerbstedt OT Helmsdorf,146.0,6347,Pollebener Straße 7 None,68500.0,13700.0,1,1
Heiming GmbH & Co.KG,fd030848-e7d3-4a13-ba97-e9f3ace2c18b,Heiming GmbH & Co.KG,51.77329573858021,7.00701632554761,Dorsten,146.0,46286,Rekener Str. 64,12900.0,12900.0,0,0
"Kühter, Anne und Heinrich",2ed6db6a-1ada-4a03-8b80-039aa0bf29cf,"Kühter, Anne und Heinrich A. u. H. Kühter Bioenergie GmbH & Co. KG",53.0323527610147,7.923874733466572,Bösel,147.0,26219,Koppelweg None,76000.0,12600.0,1,1
"Beckmann GbR, Hubertus Beckmann, Dirk",9436fd13-4eb6-46e7-a80a-1929f6f53756,"Beckmann GbR, Hubertus Beckmann, Dirk",52.8303159588017,8.2089811753276,Emstek,147.0,49685,Eschweg 1,119500.0,24000.0,1,1
"Ellermann, Carsten",49f38815-2ee9-43fe-b1ca-6a26ee3ca09d,"Ellermann, Carsten",52.3658298004083,8.35480189322892,Bohmte,146.0,49163,Osterwiehe 8,82500.0,16500.0,1,1
Saritscher Agrar - GmbH,6ed90be0-05b6-4a44-95e2-25eb25d878d5,Saritscher Agrar GmbH,51.3012820636323,14.329372757753301,Königswartha,146.0,2699,Hauptstraße 1a,78900.0,14200.0,0,0
"Grevenkamp, Heinrich-Gustav",0423c81f-badf-4e28-94fa-b9da71de17dc,"Grevenkamp, Heinrich-Gustav",52.7022578771803,7.96759158817979,Essen (Oldenburg),146.0,49632,Zum Brokhagen Stau 6,112800.0,28200.0,0,0
Rügener Frischei GmbH,b868113c-fae7-42b9-bb19-327a25c6f1bc,Rügener Frischei GmbH,54.43439890097589,13.2272634255506,Ummanz,147.0,18569,Groß Kubitz 17a,10900.0,10900.0,1,1
"Tebbe, Heinrich",0856ccb0-407c-463c-a4dc-626fd837d102,"Tebbe, Heinrich",52.438396645893405,7.73776973903426,Voltlage,146.0,49599,Mühlenort 4,56500.0,11300.0,1,1
Landwirtschaftsbetrieb Poseritz GmbH SMA Zeiten,523e58fe-cd54-401c-a5db-e483e15c9bea,Landwirtschaftsbetrieb Poseritz GmbH SMA Zeiten,54.301215823634394,13.313340944184501,Poseritz,146.0,18574,Poseritz Hof 1 a,35100.0,11700.0,1,1
"Ehrenborg, Clemens",85d00b1f-2955-4a31-b6b6-679fc66852f3,Ehrenborg Clemens,52.612042287228,8.245663774503289,Lohne (Oldenburg),146.0,49393,Ehrendorfer Straße 7,10300.0,10300.0,1,1
"Bodenkamp, Katja",bb5ef65d-a968-41c7-9c12-8815fb15293d,van Bebber Jens,52.304502777752106,7.24804825236217,Samern,146.0,48465,Lütke Brook None,85100.0,17500.0,1,1
"Bodenkamp, Katja",bb5ef65d-a968-41c7-9c12-8815fb15293d,Bodenkamp Katja,52.3165633519159,7.28005556328764,Samern,146.0,48465,Schüttorfer Straße 7,115700.0,16200.0,1,1
Agrar GmbH Wormsdorf,d01fd66a-f686-4cff-846b-49550d31d984,Agrar GmbH Wormsdorf,52.1230550775698,11.193387171522698,Eilsleben,146.0,39365,Heidberg 1,82500.0,19100.0,1,1
Holger Krüger,f0911a6d-3069-4e57-a1b7-d11ecc5c396e,Krüger KG,53.226711029560796,10.7670651961389,Dahlem,146.0,21368,Köstorf Nr. 6,77200.0,19300.0,1,1
Landgut GmbH Staritz,1620fc97-8c1c-485c-90c9-5f010e30a257,Landgut GmbH Staritz Schweinemastanlage Döbeltitz,51.4895118064685,13.1013550285642,Belgern-Schildau,146.0,4874,Elbaue 2,93400.0,18800.0,0,0
Oberpfälzer Frischei GmbH,94f405dd-849c-4e8e-ac2b-064fcd050db1,Oberpfälzer Frischei GmbH Farm Zottelhof,49.1113624221231,11.820180000037501,Beratzhausen,147.0,93176,Vorderkreith 1,66900.0,13400.0,0,0
Eierfarm Premslin GmbH,c94ce44b-e416-413c-b891-287ac4519404,Klaus Middendorf Eier und Geflügel GmbH & Co. KG,53.12111888373771,11.7800821496085,Karstädt,147.0,19357,Hagenstraße 1,26900.0,13000.0,1,1
"Niemeyer, Heinrich",150f249e-839b-4c4b-8a65-3b826e3ae066,"Niemeyer, Heinrich",52.7703053298995,7.96558225579532,Lastrup,146.0,49688,Hauptstraße 45,40800.0,10200.0,1,1
"Meyer, Jürgen",a9233562-62a3-4a68-bd50-0bfdc290d784,"Meyer, Jürgen",52.7533533275468,8.05544964416346,Essen (Oldenburg),146.0,49632,Elstener Straße 34,60000.0,12000.0,1,1
Eifrisch Vertriebsgesellschaft mbH & Co.KG,287d54d2-29dc-4870-a712-631334996e33,Eifrisch Vertriebsgesellschaft mbH & Co KG,50.7427515658065,12.8174440706143,Niederdorf,147.0,9366,Pfaffenhainer Länge None,128700.0,22800.0,0,0
Eifrisch Vertriebsgesellschaft mbH & Co.KG,287d54d2-29dc-4870-a712-631334996e33,Eifrisch Vetriebsgesellschaft mbH & Co.KG,50.7678527009219,12.851250016810999,Neukirchen/Erzgeb.,147.0,9221,Stollberger Straße 33,281000.0,52100.0,0,0
"DKC GmbH & Co. KG Klinker, Matthias",941e5bcd-7a59-4439-848d-20871eb2e41f,"DKC GmbH & Co. KG Klinker, Matthias",52.6879479590629,7.92937327375505,Essen (Oldenburg),146.0,49632,Klein Arkenstede 2,64000.0,12800.0,0,0
Baumeister Frischei GmbH & Co KG,e9524c3f-29d1-402e-904d-1e7d516723aa,Baumeister Frischei GmbH & Co KG,51.2711961476486,7.4329079901448285,Breckerfeld,147.0,58339,Brenscheid 16,63500.0,11600.0,0,0
Mastbetrieb Menke KG,18514a3a-f377-4a78-acf7-e474b2d2657f,Mastbetrieb Menke KG,52.58915640094979,7.90618579118135,Ankum,150.0,49577,Im Druchhorner Feld None,168500.0,33700.0,0,0
LVG Kläne-Menke GmbH & Co. KG,a143d037-9f0a-4ef7-835f-f15ddd70308b,LVG Kläne-Menke GmbH & Co. KG,53.0931853970782,13.483101629388402,Templin,146.0,17268,Reinfeld 1,78900.0,17700.0,0,0
GVE Anlagenverwaltung GmbH & Co. KG,ddfaf53c-13cb-4510-8e8a-f1300c620a64,egga GmbH & Co. KG GVE Anlagenverwaltung GmbH & Co. KG,52.41665315852861,8.28449721196297,Bohmte,147.0,49163,Grünerweg 14,38700.0,12900.0,0,0
HEMO Geflügelproduktion,5cf7b859-c279-40a5-be8b-4cdf875245ae,HEMO Geflügelproduktion GmbH,52.63516563527799,6.883942502734059,Emlichheim,147.0,49824,Aatalstraße 60,185800.0,36900.0,0,0
Jesse / Matz GbR,77659819-c490-4c20-9ba7-d7ae8bd4b531,Jesse und Matz GbR,52.76288288887871,11.8617326938713,Walsleben,147.0,39606,"Uchtenhagener Str.,Feldmark None",20200.0,10100.0,1,1
SAZA GmbH Großkayna,e19af17a-9450-4ff4-be8d-454d3d8d8eb6,"Betreibergemeinschaft ""DANISAL""",51.2711682518455,11.923964713706301,Braunsbedra,146.0,6242,Naumburger Str. 87,739000.0,152000.0,0,0
"Hasekamp-Plagge, Arno",cd1a5e31-1fa6-47fd-b4f3-07370f6ac7a8,"Hasekamp-Plagge, Arno",52.5174883856596,8.005544889381,Alfhausen,146.0,49594,Hadern 17,41200.0,10300.0,0,0
Schotmann GbR,6292225a-7780-48db-91e0-0122f8e91dea,Schotmann,52.2674404694474,7.1815217227841295,Bad Bentheim,147.0,48455,Burgsteinfurter Damm None,80000.0,16000.0,0,0
Norbert Brösterhaus,a1b09c5d-fb32-4474-9fca-63cd4c9b70a4,"Brösterhaus, Norbert",51.821748949294786,6.91429973890862,Heiden,146.0,46359,Bloden Acker 2,47600.0,11200.0,1,1
Landwirt J.P.M. van der Jagt,2551d5b2-747f-4894-9bf6-166dff1a61fc,Landwirt J.P.M. van der Jagt,52.1754425893135,14.292015263574099,Beeskow,147.0,15848,Ortsrandweg 3,20600.0,10300.0,0,0
Poels Schweinezucht GmbH,9d74aaa9-3665-4fbf-b28e-5437bf2ea9d6,Schweinezuchtanlage Rippershausen,50.6154105295629,10.3621817680258,Rippershausen,146.0,98639,Am Wald 1,138400.0,30300.0,0,0
"Kiekebusch, Michael",65e27e74-2392-48a2-8ef9-552cd7eeb5db,"Kiekebusch, Heinz",51.67989004458821,7.39050086445574,Olfen,146.0,59399,Sülsen 25,41600.0,10400.0,1,1
BWE-Brüterei Weser-Ems GmbH & Co. KG,4fefd0c2-1fb0-4df3-ad3b-cdbc7504749c,BWE Brüterei Weser-Ems GmbH & Co.KG,52.8462588017465,8.36869830201116,Visbek,147.0,49429,Holte 17,158700.0,32300.0,1,1
BWE-Brüterei Weser-Ems GmbH & Co. KG,4fefd0c2-1fb0-4df3-ad3b-cdbc7504749c,BWE - Brüterei Weser Ems GmbH & Co. KG,52.0010376078298,8.29089528552977,Halle,147.0,33790,Kölkebecker Str. 45,60300.0,11900.0,1,1
BWE-Brüterei Weser-Ems GmbH & Co. KG,4fefd0c2-1fb0-4df3-ad3b-cdbc7504749c,BWE-Brüterei Weser-Ems GmbH & Co. KG Farm Wetschen,52.622590864201,8.45627247676436,Wetschen,147.0,49453,Farmstr. 20,176700.0,33600.0,1,1
BWE-Brüterei Weser-Ems GmbH & Co. KG,4fefd0c2-1fb0-4df3-ad3b-cdbc7504749c,BWE-Brüterei Weser-Ems GmbH & Co. KG Farm Rehden,52.615737326073294,8.5222914865442,Rehden,147.0,49453,Heerweg 5,184300.0,35900.0,1,1
BWE-Brüterei Weser-Ems GmbH & Co. KG,4fefd0c2-1fb0-4df3-ad3b-cdbc7504749c,BWE-Brüterei Weser-Ems GmbH,52.76431044209001,8.25604759077769,Vechta,147.0,49377,Mühlenkamp 2,10900.0,10900.0,1,1
BWE-Brüterei Weser-Ems GmbH & Co. KG,4fefd0c2-1fb0-4df3-ad3b-cdbc7504749c,Hähnchenmastanlage Hestern,52.990305784809294,8.51755812407014,Ganderkesee,147.0,27777,Neustädter Str. 19,41800.0,10200.0,1,1
BWE-Brüterei Weser-Ems GmbH & Co. KG,4fefd0c2-1fb0-4df3-ad3b-cdbc7504749c,BWE-Brüterei Weser-Ems GmbH & Co. KG Farm Martfeld,52.88102984333611,9.04102849330914,Martfeld,147.0,27327,In der Weide 29,164000.0,31900.0,1,1
BWE-Brüterei Weser-Ems GmbH & Co. KG,4fefd0c2-1fb0-4df3-ad3b-cdbc7504749c,BWE-Brüterei Weser-Ems GmbH & Co. KG Farm Eschenhausen,52.8477433429327,8.78058144610856,Bassum,147.0,27211,Eschenhausen 49,181800.0,35100.0,1,1
ALBOCO GmbH,ff54ef60-cba6-4915-aafa-41f18447c857,ALBOCO GmbH,51.846093007699395,11.544222278578902,Hecklingen,146.0,39444,Wilhelm-Bieser-Str. 12,163200.0,32600.0,0,0
Vennix Agrar,8b5ac5d2-e764-462c-a6fe-94ed76318b4e,Vennix Agrar,52.13581616887011,14.4981618018701,Schlaubetal,146.0,15890,Bergweg 19,87500.0,17500.0,0,0
Ralf Storkamp,2999de88-09aa-47cb-9029-05b317056c20,"Storkamp, Ralf",51.7656569931841,7.9590704435566115,Ahlen,146.0,59229,Beckumer Straße 276,14600.0,14600.0,1,1
Kartzfehn Märkische Puten GmbH,44cea42c-8ea8-4039-a15b-f2a50a014572,Kartzfehn Märkische Puten GmbH,53.0673182467972,12.7380377028421,Neuruppin,147.0,16818,Dorfstraße 13,227000.0,41400.0,1,1
Kartzfehn Märkische Puten GmbH,44cea42c-8ea8-4039-a15b-f2a50a014572,"Kartzfehn Märkische Puten GmbH Alt Zauche-Wußwerk, OT Burglehn",51.9410053326299,14.022518995589099,Alt Zauche-Wußwerk,147.0,15913,Burglehn None,28100.0,28100.0,1,1
Kartzfehn Märkische Puten GmbH,44cea42c-8ea8-4039-a15b-f2a50a014572,Börde Puten Aufzucht Klein Oschersleben KG,52.011546330882396,11.351015101798598,Oschersleben,147.0,39387,Diemenweg 1 None,138400.0,34600.0,1,1
Carsten Hillmann-Köster,75ab28b7-e596-4d3b-92f8-675f873376ac,Carsten Hillmann Köster,52.8395077389386,8.92449407908633,Süstedt,146.0,27305,Sunder 6,58000.0,14500.0,1,1
Sophienhof Ferkel GmbH,6e055ed3-8a31-4f23-a718-98a8eb9b3cba,Sophienhof Ferkel GmbH,53.6597353682609,7.25706455897349,Hagermarsch,146.0,26524,Sophienhof 2,63800.0,13000.0,0,0
Snoeck -Vogel GbR,2716f0c5-254c-4f6b-9c43-425dfc7f7bd1,Snoek & Vogel GbR,52.54322055330461,6.7307958218843496,Wielen,147.0,49847,Industriestraße 7,66500.0,13600.0,0,0
"Austing, gr., Werner",cc553442-7a2d-4182-bb3e-3c8c29acfee9,"Austing, gr. Werner",52.5185810772594,8.24033880565884,Damme,146.0,49101,Zum Alten Berge 7,57200.0,12400.0,0,0
Landwirtschaft Rathmannsdorf  Verwaltungs- GmbH & Co. KG,9cb3411d-cd1f-4cbc-9558-cb7b02ad2f47,Landwirtschaft Rathmannsdorf  Verwaltungs- GmbH & Co. KG,51.8250349727489,11.625007294679301,Rathmannsdorf,147.0,39439,An der Wasserfurth None,72300.0,72300.0,0,0
Agrarprodukte GmbH Ebersbach,62efb5c7-e9dd-4615-bdf1-0d2850079de2,SZA Ebersbach - Im Wald,51.255437649955795,13.6734594955877,Ebersbach,146.0,1561,Im Wald 1,64900.0,12900.0,0,0
Putenmast Fladder GbR,f2db0751-21f7-41fd-8cc1-ef36fcd20063,Putenmast Fladder GbR,53.0181798905889,7.97002413990014,Bösel,147.0,26219,Fladderburger Straße None,66500.0,12100.0,0,0
"Lamping, Josef",a336b414-20f9-4ead-ac88-c52ff275a214,"Lamping, Josef",52.9787841856433,7.978095594359631,Bösel,146.0,26219,Glaßdorfer Straße 5,44900.0,14000.0,1,1
"BJB Evers, Bernhard u. Jan-Bernd Evers",176d9e40-f5bb-4ef3-99d2-f794724609a4,BJB Evers Bernhard u. Jan-Bernd Evers,52.7245620957946,8.209652389310481,Bakum,146.0,49456,Elmelager Straße 4,59600.0,14900.0,0,0
Märkischer Schweinehof GmbH Langenlipsdorf,db18dfce-7857-4eae-981f-af8c46966149,Märkischer Schweinehof GmbH Langenlipsdorf,51.9184898111427,13.0691285707896,Niedergörsdorf,146.0,14913,Pappelallee 1,109000.0,21800.0,1,1
Deutsche Frühstücksei Anlagenverwaltung GmbH & Co. KG,69396217-fef8-4d05-b380-d5fc75a9d654,Deutsche Frühstücksei GmbH und Co KG,52.7302442862654,8.10949923248913,Bakum,147.0,49456,Essener Straße 27,67000.0,13400.0,1,1
Deutsche Frühstücksei Anlagenverwaltung GmbH & Co. KG,69396217-fef8-4d05-b380-d5fc75a9d654,Deutsche Frühstücksei Betriebsgesellschaft mbH & Co.KG,52.5332396143267,8.009818339364509,Gehrde,147.0,49596,Landsherrenweg None,41100.0,13700.0,1,1
Deutsche Frühstücksei Anlagenverwaltung GmbH & Co. KG,69396217-fef8-4d05-b380-d5fc75a9d654,Deutsche Frühstücksei Anlagenverwaltung GmbH & Co. KG,52.574994922419386,8.032001933384791,Gehrde,147.0,49596,Feldstraße 15,93600.0,23400.0,1,1
Deutsche Frühstücksei Anlagenverwaltung GmbH & Co. KG,69396217-fef8-4d05-b380-d5fc75a9d654,Deutsche Frühstücksei Anlagenverwaltung GmbH & Co. KG,52.41665315852861,8.28449721196297,Bohmte,147.0,49163,An der Bolzenburg None,52800.0,13200.0,1,1
Deutsche Frühstücksei Anlagenverwaltung GmbH & Co. KG,69396217-fef8-4d05-b380-d5fc75a9d654,Deutsche Frühstücksei GmbH,52.1183992298491,7.20483106449824,Schöppingen,147.0,48624,Haverbeck 49,36000.0,12000.0,1,1
Deutsche Frühstücksei Anlagenverwaltung GmbH & Co. KG,69396217-fef8-4d05-b380-d5fc75a9d654,Deutsche Frühstücksei Anlagenverwaltung GmbH & Co. KG,52.4314743770269,8.22671688132282,Bohmte,147.0,49163,Zum Kienpohl 1,96000.0,24000.0,1,1
Deutsche Frühstücksei Anlagenverwaltung GmbH & Co. KG,69396217-fef8-4d05-b380-d5fc75a9d654,Deutsche Frühstücksei GmbH und Co KG,52.539385170002,8.04657191446185,Neuenkirchen-Vörden,147.0,49434,Bieste 52,181000.0,36200.0,1,1
Deutsche Frühstücksei Anlagenverwaltung GmbH & Co. KG,69396217-fef8-4d05-b380-d5fc75a9d654,Legehennenanlage Farm Döhlen,52.9718721650628,8.221633000687241,Großenkneten,147.0,26197,Krumlanderstr. 11,47200.0,11800.0,1,1
Wilhelm Middendorf,222909ca-bccc-4a68-b9c2-81e22e4766ab,Wilhelm Middendorf Schweinemast Wilmshagen Wilhelm Middendorf,54.1617533062146,13.163946185499697,Sundhagen,146.0,18519,Zum Rügenzubringer 8,55900.0,11400.0,1,1
Ludwig Wührer,ed342a1b-4da7-41dd-8640-18c03747894f,Ludwig Wührer,48.5458098776661,12.6801827454459,Simbach,146.0,94436,Hofmark 4,57600.0,15500.0,1,1
Karrenziner Schweinemast GmbH,db3c12c5-2726-464f-b94f-44fe3561e826,Karrenziner Schweinemast GmbH Schweinemastanlage,53.335564733664896,11.814418977119301,Karrenzin,146.0,19372,Ausbau 1,236600.0,27300.0,0,0
Toebes GmbH,0b81196f-791d-48fa-a812-bb1d59efa365,Schweinezuchtanlage Gleicherwiesen,50.35857616583221,10.6279292494172,Römhild,146.0,98630,Lindnerstraße 40,69900.0,15400.0,1,1
GbR Bernd und Frank Meyer,9d9d6dcd-fb57-4b50-9d06-58bf966ebbf4,Gemischte Tierhaltung Leuschentin,53.739865897494404,12.8114322382043,Kummerow,146.0,17139,Zum Lalaberg 1,76000.0,19000.0,1,1
Schlaitzer Landwirtschaftlicher Tierzuchtbetrieb GmbH,1e3edfdb-0378-4e95-b7b7-bfd00ce0b697,Schlaitzer Landwirtschaftlicher Tierzuchtbetrieb GmbH Schlaitzer Landwirtschaftlicher Tierzuchtbetrieb GmbH,51.6559287287262,12.4139214716693,Muldenstausee,146.0,6774,Zur Tierzucht 1 None,34600.0,11100.0,0,0
Liemershof GmbH & Co. KG,97534a73-4c65-435c-af9a-d70efc1e4d91,Liemershof GmbH & Co. KG,52.08987707751,10.982013077399499,Hötensleben,146.0,39393,Höhtenslebener Landstraße 1,85700.0,37100.0,0,0
Görtz Blumenberg GmbH & Co. Agrar KG,91bf402a-f8f3-4e02-817e-51399e2d5e74,Görtz Blumenberg GmbH & Co. Agrar KG Aschersleben,51.7983150154269,11.4565622090429,Aschersleben,146.0,6449,Winniger Chaussee None,109000.0,21800.0,1,1
Görtz Blumenberg GmbH & Co. Agrar KG,91bf402a-f8f3-4e02-817e-51399e2d5e74,Görtz Blumenberg GmbH & Co. Agrar KG,52.045789281908,11.447757724605301,Klein Wanzleben,146.0,39164,Bottmersdorfer Straße 14,229500.0,45900.0,1,1
Geflügelhof Möckern - ZNL der Lohmann & Co. AG,9a789fc5-c557-40c7-b890-49f416f8477b,Geflügelhof Möckern ZNL der Lohmann & Co. AG Hähnchenmastanlage Zernsdorf,52.3054562077244,13.672939712002401,Königs Wusterhausen,147.0,15758,Fürstenwalder Weg None,231200.0,40300.0,1,1
Geflügelhof Möckern - ZNL der Lohmann & Co. AG,9a789fc5-c557-40c7-b890-49f416f8477b,Geflügelhof Möckern ZNL der Lohmann & Co. AG Elterntieranlage Zeesen,52.2740353940382,13.6260519707436,Königs Wusterhausen,147.0,15711,None None,302300.0,57100.0,1,1
Geflügelhof Möckern - ZNL der Lohmann & Co. AG,9a789fc5-c557-40c7-b890-49f416f8477b,Geflügelhof Möckern Zweigniederlassung Lohmann & Co. AG - Hähnchenmastanlage Biesenthal,52.7363144261207,13.644486368491599,Biesenthal,147.0,16359,None None,76000.0,17900.0,1,1
Geflügelhof Möckern - ZNL der Lohmann & Co. AG,9a789fc5-c557-40c7-b890-49f416f8477b,Elterntieranlage Loburg,52.1018503823423,12.1015188658058,Möckern OT Loburg,147.0,39291,Dorfstraße None,352800.0,73000.0,1,1
Geflügelhof Möckern - ZNL der Lohmann & Co. AG,9a789fc5-c557-40c7-b890-49f416f8477b,Junghennenaufzuchtanlage Stegelitz,52.1840167582345,11.997675195462,Möckern OT Stegelitz,147.0,39291,Im Wald None,71100.0,12000.0,1,1
Geflügelhof Möckern - ZNL der Lohmann & Co. AG,9a789fc5-c557-40c7-b890-49f416f8477b,"Geflügelhof Möckern, Möckern",52.1571666971222,11.974037898478699,Möckern,147.0,39291,Im Wald None,231700.0,40800.0,1,1
Geflügelhof Möckern - ZNL der Lohmann & Co. AG,9a789fc5-c557-40c7-b890-49f416f8477b,Elterntieranlage Möckern,52.190504656153294,11.9601669667424,Möckern,147.0,39291,"Im Wald, Weg nach Lüttgenziatz None",558800.0,113000.0,1,1
Schweinezucht Alt Tellin GmbH,993abb28-351d-4043-9c8f-330626d9d51e,Schweine- und Biogasanlage Alt Tellin,53.8559020585672,13.276154064110699,Alt Tellin,146.0,17129,An der Kreisstraße 29,210000.0,73100.0,0,0
Paetrower Schweineproduktion GmbH & Co. KG,f16ce431-2313-4c4c-b04b-5935dad81b47,Paetrower Schweinemastanlage,53.7300095901943,11.162067255592596,Veelböken,146.0,19205,Gadebuscher Straße 10,164200.0,32800.0,1,1
Ferkelproduktion Großmühlingen GmbH & Co. KG,a55f9cef-bfde-4f60-9036-f324e40a3e47,Ferkelproduktion Großmühlingen GmbH & Co. KG,51.952293474188394,11.7261555649245,Bördeland OT Großmühlingen,146.0,39221,An der Ölmühle 1,56100.0,11400.0,1,1
"Wöste, Maria",12afd617-2bf1-4910-a0a1-0a9a4b1a495d,"Wöste, Maria",52.461991082471286,7.833462695188321,Merzen,147.0,49586,Zum Hülshof 2,41200.0,10300.0,0,0
Poels Mastschweine GmbH,9d02276d-95b6-4995-b7bf-7f42bf06f1ef,Schweinemastanlage Solz,50.6188389861347,10.346546944531301,Rippershausen,146.0,98639,Schafberg (Flur) None,222400.0,44700.0,1,1
GF Grafschafter Frischei,9349a7f9-3a75-40d7-b992-93375a733ebe,GF Grafschafter Frischei GmbH & CO.KG,52.4821205394209,7.17556635640817,Wietmarschen,147.0,49835,Pferdebahn None,90100.0,40000.0,0,0
Michael Roskothen,70a2e9f1-886e-44cd-b156-9fcc599a0c02,Michael Roskothen-Sauen,54.702939324809506,9.57996673835742,Mittelangeln,146.0,24986,Obdrupstraße 2,51100.0,19500.0,1,1
Agrargenossenschaft Cobbelsdorf e.G.,fc5a66ed-e7ab-446b-88a4-1bcb5f9c8525,Agrargenossenschaft Cobbelsdorf e.G. Agrargenossenschaft Cobbelsdorf e.G.,51.9627666127573,12.483251044786101,Köselitz,146.0,6869,Am Funkturm None,33600.0,11200.0,0,0
Thüringer Qualitätsfleisch GmbH Witzleben,d9df5423-8c71-4bb4-8852-a14f5255bcc0,Thür. Qual.-fl. GmbH / Witzleben,50.8192376523211,11.1127167404873,Witzleben,146.0,99310,Zum Wolfetal 72b,60000.0,12000.0,1,1
Agrargenossenschaft Mühlanger e.G.,320cd4eb-85a1-4702-ae4a-41c3d94c281b,Schweinemastanlage Weinberge,51.453891597192495,13.230117048562803,Mühlberg/Elbe,146.0,4931,Brottewitzer Straße 15,67600.0,11900.0,1,1
Agrargenossenschaft Mühlanger e.G.,320cd4eb-85a1-4702-ae4a-41c3d94c281b,Schweinemastanlage Jückelberg,50.9257917507949,12.6326937430176,Jückelberg,146.0,4618,Dorfstraße 7,40800.0,10200.0,1,1
Agrargenossenschaft Mühlanger e.G.,320cd4eb-85a1-4702-ae4a-41c3d94c281b,Agrargenossenschaft Mühlanger e.G.,51.865258079098,12.7824166689234,Külso,146.0,6888,Dietrichsdorfer Straße 12,130500.0,26100.0,1,1
Hinxlage und Wiefering GmbH,92882326-7fcb-4637-ab72-1c990476354d,Hinxlage & Wiefering GmbH RWS Agrarveredelung GmbH & Co. KG,53.0340708342671,7.95422521055086,Bösel,147.0,26219,Overlaher Straße 56 A,69800.0,11400.0,0,0
Markus Dahl,bcfd1f2a-699b-4267-8b4d-5e3e4e7405fd,Neichener Schweinehaltungs KG;  SMA Neichen,51.2937112726868,12.768202406533801,Trebsen/Mulde,146.0,4687,Ernst-Thälmann-Str. 14,96200.0,19400.0,1,1
Markus Dahl,bcfd1f2a-699b-4267-8b4d-5e3e4e7405fd,Markus Dahl,51.5477304187687,8.796871012842029,Bad Wünnenberg,146.0,33181,Eggenhof 1,72300.0,15100.0,1,1
H.u.V. Schweinezucht GmbH,b53f7d4d-4924-475f-9996-60161c578b38,H.u.V. Schweinezucht GmbH Radegast Schweinezuchtanlage Radegast,53.9605249347882,11.8444855839182,Satow,146.0,18239,Landstraße 30,48700.0,12100.0,0,0
"Schulze Wierling, Theodor",ce69353b-20b4-4f3f-9a5d-d5a960ae7725,"Schulze Wierling, Theodor",52.00601355416021,7.39381814016512,Billerbeck,146.0,48727,Temming 5,24200.0,13500.0,1,1
"Westrup, Benedikt",f1c55488-e37b-4437-8ea3-1af4afc56865,"Westrup, Benedikt",51.6828522387548,7.37250153934782,Olfen,146.0,59399,Lehmhegge 15,61200.0,11800.0,1,1
Schlachtgeflügel-Erzeugergemeinschaft Twist GmbH,2e598069-74d4-4f4d-80f1-4be20e2cf4c9,De Driemaat GbR,52.2684912971476,7.17387213819053,Bad Bentheim,147.0,48455,Ochtruper Straße 145,121500.0,24300.0,0,0
Schlachtgeflügel-Erzeugergemeinschaft Twist GmbH,2e598069-74d4-4f4d-80f1-4be20e2cf4c9,Schlachtgeflügel-Erzeugergemeinschaft Twist GmbH,52.659246341032,7.228143111382629,Meppen,147.0,49716,Hasbergstraße 25,72000.0,14400.0,0,0
Schlachtgeflügel-Erzeugergemeinschaft Twist GmbH,2e598069-74d4-4f4d-80f1-4be20e2cf4c9,Schlachtgeflügel-Erzeugergemeinschaft Twist GmbH,52.6095104385919,7.23134819369925,Geeste,147.0,49744,Meppener Straße 143,61000.0,12200.0,0,0
Schlachtgeflügel-Erzeugergemeinschaft Twist GmbH,2e598069-74d4-4f4d-80f1-4be20e2cf4c9,Schlachtgeflügel-Erzeugergemeinschaft Twist GmbH,52.71398911341699,7.203998973326841,Meppen,147.0,49716,Overbergstraße 9,76500.0,15300.0,0,0
Schlachtgeflügel-Erzeugergemeinschaft Twist GmbH,2e598069-74d4-4f4d-80f1-4be20e2cf4c9,Schlachtgeflügel-Erzeugergemeinschaft Twist GmbH,52.73256943658879,7.200761757669821,Meppen,147.0,49716,Neuversenerstraße None,67500.0,13500.0,0,0
Schweinehaltung Düben GmbH & Co. KG,830b5034-8ff1-4d66-840b-c8987fabbc19,Schweinehaltung Düben GmbH & Co. KG,51.922498418377295,12.3880428236466,Düben,146.0,6869,Buroer Weg 26b,116400.0,28800.0,1,1
MV Babyporc GmbH,61635981-3b70-40a6-8131-7afc0c3457ea,MV Babyporc GmbH,53.995417938862104,12.6997409353574,Gnoien,146.0,17179,Bäbelitzer Weg 18,155000.0,18300.0,1,1
Geflügelmast GmbH Weiherstetten & Co. KG,3888a68b-6acf-4b6c-8e78-62b10e94e065,Farm Weiherstetten,49.20233916961929,11.7402692436786,Parsberg,147.0,92331,Weiherstetten 1,22000.0,10700.0,0,0
Seydaer Landwirtschafts GmbH  Mellnitz,555a57ec-714d-4e69-8f0d-04d259ffb339,Seydaer Landwirtschafts GmbH  Mellnitz,51.907115030674,12.9172718873526,Jessen OT Mellnitz,146.0,6917,Dorfstraße None,88500.0,15600.0,1,1
Dennis van der Pasch,fb93e88f-e0a5-437a-9bac-d7c9ded88cbc,Schweinemast Albertshof KG,52.698475838531714,13.6645129799664,Rüdnitz,146.0,16321,Rüsternstraße 19,50800.0,10100.0,1,1
Dennis van der Pasch,fb93e88f-e0a5-437a-9bac-d7c9ded88cbc,Schweinezucht Schulzendorf KG,52.6873151072185,14.106955270285,Wriezen,146.0,16269,Ausbau 2,69900.0,14800.0,1,1
Eierfarm Meyerhöfen GmbH,51c97fff-f9b4-4b3a-959a-f9b8cbd94061,Eierfarm Meyerhöfen GmbH,52.8350532317163,8.26631429325989,Visbek,147.0,49429,Meyerhöfen 17,69200.0,13800.0,0,0
Kreiling GmbH & Co. KG,eaf9b2d4-bb53-41d9-9ee3-d5eb4bfebdee,Kreiling GmbH & Co. KG,52.5660998677381,7.96978865465292,Bersenbrück,146.0,49593,Kreilings Weg 11,52000.0,10400.0,1,1
Frank Tiggemann,49c2f67e-0086-4b8f-89a1-53f2cbd25546,Tiggemann,52.5147857822969,14.5045835167747,Lindendorf,146.0,15306,Straße des Friedens 93 a,60000.0,10200.0,1,1
Frank Tiggemann,49c2f67e-0086-4b8f-89a1-53f2cbd25546,Gut Klessin Frank Tiggemann,52.460164339452106,14.543463760667,Podelzig,146.0,15326,Klessiner Straße 18,100900.0,19700.0,1,1
Hagedorn-Voß GmbH,cf5b4f45-a2c8-4a7f-8321-890e1cce102f,Hagedorn-Voß GmbH,52.1087764689359,7.50709956938028,Nordwalde,147.0,48356,Suttorf 68,72000.0,14400.0,0,0
Osterwohler Schweinezucht GmbH,064204d4-d20a-438b-8ea2-43f1e92c64d6,Osterwohler Schweinezucht GmbH,52.727040795482104,10.553057800208599,Dedelstorf,146.0,29386,Im Paradies None,83500.0,16700.0,1,1
Osterwohler Schweinezucht GmbH,064204d4-d20a-438b-8ea2-43f1e92c64d6,Osterwohler Schweinezucht GmbH,52.8345943068482,11.026014915230801,Salzwedel,146.0,29410,Dorfstraße 38,58000.0,14500.0,1,1
Aschara Landwirtschaftsgesellschaft mbH,6c2b9ba9-88b5-4c61-9622-9b510595fc17,Aschara Landwirtschaftsgesellschaft mbH - Schweinemast,51.0459985024654,10.6331086379536,Bad Langensalza,146.0,99947,Schacktor 49 a,127900.0,28100.0,1,1
Leisink Schweinehaltung GmbH,d172e115-86e4-49f1-8724-481242fa9ff3,Leisink Schweinehaltung GmbH,51.3442892309711,10.930817899555096,Sondershausen,146.0,99706,Neusiedlerstraße 7,116900.0,32300.0,1,1
Leisink Schweinehaltung GmbH,d172e115-86e4-49f1-8724-481242fa9ff3,Leisink Schweinehaltung GmbH,50.4989529667153,11.914569646171,"Tanna, Stadt",146.0,7922,Unterkoskau 93,78600.0,16400.0,1,1
"Völkerding, Werner",24d2f823-038c-4b7c-8096-8324aacc45b0,Völkerding Werner,52.5846960777348,8.1123931025007,Holdorf,146.0,49451,Fladderweg 8,10100.0,10100.0,1,1
Storkower Geflügelmast GmbH,61325dbe-16c3-44e1-b8fe-e42491ef54fb,Storkower Geflügelmast GmbH,52.2732139516708,13.9568946233025,Storkow (Mark),147.0,15859,Fürstenwalder Straße 55,67400.0,17500.0,1,1
Heide Ferkelerzeugung GmbH,91301226-28fe-4c9c-a4f0-2cdc4afa862e,Heide Ferkelerzeugung GmbH,52.8633093354112,8.21992307988389,Emstek,146.0,49685,Garther Heide None,62200.0,12800.0,0,0
Schweinezucht Neuhaus GmbH,1de08997-2a6a-4813-8af0-e947c0439a9b,Schweinezucht Neuhaus GmbH,53.29425878908671,10.9742548129299,Amt Neuhaus,146.0,19273,Hauptstraße None,43600.0,15700.0,1,1
"Große Hartlage, Frank",97faa3ca-d43d-46f9-9dd6-482b8b620844,"Große Hartlage, Frank",52.086138193235705,7.90254602559898,Glandorf,146.0,49219,Hauptstraße 47,57600.0,14400.0,1,1
Björn Lenzmann,1a8b0b6f-050d-4c03-bab2-09bd53469179,Hähnchenmastanlage Tramm Björn Lenzmann,53.5135770223518,11.6577685832107,Tramm,147.0,19089,Klinkener Straße 3-5,77100.0,23100.0,0,0
Siegfried Böhm,a7863ae1-3ec0-43f4-9020-1b4fc0e60071,Landwirtschaftsbetrieb Siegfried Böhm,51.3258945687033,11.9499999245121,Merseburg,146.0,6217,Geusaer Weg 4,101000.0,20200.0,1,1
Rustenbecker Schweinezucht GmbH,f28a1346-af80-4592-8e7f-ed8315e835cc,Rustenbecker Schweinezucht GmbH,52.8572832899287,10.955533358426301,29410 Salzwedel/ OT HenningenHenningen,146.0,29413,Osterwohle 38,60400.0,15100.0,1,1
"LZ ""Hörseltal"" e.G. Mechterstädt",f9b5b4b4-e43b-4757-a8aa-da88e6cb26f2,"LZ ""Hörseltal"" e.G.",50.9494471274551,10.5647877896864,Hörsel,146.0,99880,Burgweg None,53900.0,11000.0,0,0
"Agrargesellschaft mbH & Co.KG ""Leinetal""",84675634-4de8-447d-ab90-046a1d8a5fef,"Agrargesellschaft mbH & Co KG ""Leinetal"" ,SMA Sausedlitz",51.57164679044729,12.437928521700599,Löbnitz,146.0,4509,Hauptstraße 2 a,46500.0,20800.0,0,0
AGRÖ Frankenthal GmbH,7a5171b0-bd9f-4988-bb6b-8598de2c3e86,Agrö Frankenthal GmbH,51.1323430380803,14.111994981459901,Frankenthal,146.0,1909,Rammenauer Str. 7,108300.0,21700.0,0,0
VAN ASTEN Tierzucht Neumark GmbH & Co. KG,73656378-dcb0-485f-bc9f-2b9add8aea50,VAN ASTEN Tierzucht Neumark GmbH & Co. KG i.G.,51.088413510544,11.2463178499475,Neumark,146.0,99439,Am Langen Raine 1,214400.0,46600.0,1,1
Bolart Schweineproduktionsanlagen GmbH,e817b007-d715-40f3-8faf-f44bc84b774d,Schweinezucht- und Mastanlage Tornitz,51.75344468525381,14.0911301089295,Vetschau/Spreewald,146.0,3226,Tornitzer Straße 1,702000.0,146000.0,0,0
Straathof - Strehle GmbH,4d39424e-c498-42bd-8b45-bf83529d56b9,Straathof - Strehle GmbH Fl.-Nr. 2387 Gem. Wörnitzstein,48.711180353154106,10.6858578577038,Donauwörth,146.0,86609,Reichertsweiler 9,85400.0,20100.0,0,0
LSL Rhein-Main Geflügelverm.,209b0263-83f8-4b9c-beb3-7fc931ce6f91,LSL - Rhein - Main Geflügelvermehrungsbetriebe GmbH,49.735145866960494,8.438452729173301,Hamm am Rhein,147.0,67580,Außerhalb 22a,146000.0,29200.0,0,0
LSL Rhein-Main Geflügelverm.,209b0263-83f8-4b9c-beb3-7fc931ce6f91,Legehennenhaltung LSL-Rhein-Main,50.469571632873,8.12579385348976,Beselich,147.0,65514,/ .,79000.0,15800.0,0,0
Sauenhaltung Stangengrün GmbH,2ffe2645-f285-4c91-a2d5-7c32d880f72c,Sauenhaltung Stangengrün GmbH,51.6794456634711,11.7729502983218,Könnern,146.0,6420,Köthener Str. 8A,44500.0,10900.0,0,0
"Frehe, Norbert",212d7676-bd81-4d4d-8232-5f7ce3b30fde,"Frehe, Norbert",52.46100318197001,7.731382772235088,Voltlage,146.0,49599,Fürstenauer Straße 27,84500.0,16900.0,1,1
Thomas Gehring,832f9bd0-3f6f-4402-91c6-deacb1c79f5b,Thomas und Corinna Gehring GbR,49.1961377786273,9.90381571520866,Ilshofen,147.0,74532,Rotweg 3,33300.0,33300.0,1,1
Schweinezucht Lindenberg GbR,b22ac866-4ee8-424b-be98-553b117da5b7,Schweinezucht Lindenberg GbR,52.1870649445346,14.1014334898316,Tauche,146.0,15848,Ahrensdorfer Straße 28,75800.0,16700.0,1,1
Heukamp GbR,def0e321-cae9-4c5c-b382-10c3ab281a3a,Heukamp GbR,51.8159496341276,11.5619237791278,Neundorf,146.0,39418,Ascherslebener Straße 23,81900.0,12000.0,0,0
Heiko Bruns,c75b4c21-2bef-4bb9-a8fe-f58a1e20f6c2,"Legehennenanlage Bruns, Heiko",52.99795557446,8.37296960172055,Dötlingen,147.0,27801,Neue Dorfstr. 7,104700.0,34900.0,1,1
Kemphauser Schweinemast GmbH,833b1a3c-c7f8-4e07-bba6-842b7b4c7689,Kemphauser Schweinemast GmbH,52.5189573029301,8.25711876276325,Damme,146.0,49401,Kemphausen 24,116600.0,23700.0,0,0
"BHZP GmbH, An der Wassermühle 8, D-21368 Dahlenburg-Ellringen",4aff5f17-6e69-4b2f-87b4-f05a8afa1241,BZHP GmbH,53.3367747848788,11.0267201033886,Lübtheen,146.0,19249,Basisbetrieb - OT Langenheide None,21600.0,11000.0,0,0
Schweinemast Böckermann Dolgen KG,449ee99a-3816-4f09-993d-6417d54d71ff,Schweineanlage Dolgen,53.3454980179384,13.3528962988849,Feldberger Seenlandschaft,146.0,17258,Dorfstraße 85,147100.0,26300.0,0,0
Börde Porc GmbH,fa342d93-fe27-45e4-a108-87670a899368,Börde Porc GmbH,51.9638745351055,11.31202263015,Oschersleben (Bode) OT Hadmersleben,146.0,39387,Amtshof None,31300.0,15400.0,0,0
GmbH Läuferproduktion Langensalzwedel,e2633ebc-1f1d-4e18-abfc-e3d6531e3083,GmbH Läuferproduktion Langensalzwedel,52.581383933754395,11.9501620749914,Langensalzwedel,146.0,39590,Salzstraße 33,21500.0,10600.0,1,1
GmbH Läuferproduktion Langensalzwedel,e2633ebc-1f1d-4e18-abfc-e3d6531e3083,GmbH Läuferproduktion Langensalzwedel Mast Wulkau,52.774443861099996,12.060265768187099,Kamern OT Wulkau,146.0,39524,Ausbau 4,79900.0,15900.0,1,1
Karsten Kruse,a866e8c0-62f1-45aa-9512-9051efd1a4da,Gut Herzberg Kruse KG Schweinemastanlage Herzberg,53.53263680969521,11.9257715318123,Obere Warnow,146.0,19374,Parkstraße 12,102000.0,20400.0,1,1
Gregor Große-KockHofstelle 2,5618dbdf-9a84-4f23-8c9b-04ec0413beea,Gregor Große-Kock Hofstelle 2,51.737917037811,6.96858284467586,Dorsten,146.0,46282,Lasthausener 161,26200.0,13100.0,0,0
Tierproduktion GbR Klug/Braune,71381ae7-0582-4142-90c9-d72fc355db5d,Tierproduktion GbR Klug/Braune Tierproduktion GbR Klug/Braune,51.1866288227833,11.511413925934301,Finneland,147.0,6647,An der Marienrodaer Straße None,196500.0,39300.0,1,1
RWS Agrarverdelung GmbH & Co KG,19ded7b5-fc8e-45dc-bd87-c2a28795ea38,"Behrens, Maria",52.9253274640039,8.04474883461987,Garrel,147.0,49681,Heideweg 1 A,63900.0,10500.0,1,1
RWS Agrarverdelung GmbH & Co KG,19ded7b5-fc8e-45dc-bd87-c2a28795ea38,RWS Agrarverdelung GmbH & Co KG,53.117028248636295,7.6997059108125105,Saterland,147.0,26683,Zur Imkehörne 1,64300.0,10600.0,1,1
"Westerhoff, Dirk",83bf330c-08f3-410a-9682-f334cd498595,"Westerhoff, Dirk",52.830685684179294,7.91158756586686,Molbergen,146.0,49696,Alte Brücke 20,21600.0,10800.0,0,0
"Schulze Brüning, Meinolf",1ca9dfbe-bc01-4ff1-94d2-ae58a5670f27,"Schulze Brüning, Meinolf",51.83221542857571,7.89910746062889,Ennigerloh,146.0,59320,Sommersell 13,62700.0,19500.0,1,1
Cobb Germany Avimex GmbH,bce0b37e-b94a-452c-8356-323f39420594,Cobb Germany Avimex GmbH -Elterntierhaltung (Radefeld 2),51.43353410016971,12.3046399223905,Schkeuditz,147.0,4435,Wolteritzer Straße 3,324000.0,54600.0,1,1
Cobb Germany Avimex GmbH,bce0b37e-b94a-452c-8356-323f39420594,Cobb Germany Avimex Geflügelhaltung Wiesenena,51.4574317512124,12.1812035481497,Wiedemar,147.0,4509,Schulweg None,109600.0,14600.0,1,1
Hühnerhof Hennes Nienburg GmbH,28ff1733-941d-4758-96f8-0a20428511c0,Hühnerhof Hennes Nienburg GmbH,52.6019316422387,9.24767477690642,Husum,147.0,31632,Kirchweg 57,182000.0,36400.0,0,0
"Behrens, Wolfgang",589c0f14-447f-4630-bb3f-17d99ffa8bab,"Behrens, Wolfgang",52.823540094386395,8.11994060797261,Emstek,147.0,49685,Am Wegholt 7,100500.0,18600.0,1,1
Randow Welse,2acd8a27-6bdc-43c2-8323-3d99cd4e16f1,"""Randow,Welse"" GmbH & Co.Agrarprod.KG",53.20454967214089,14.148267240557196,Casekow,146.0,16306,Schneidmühlenweg 3,43500.0,14400.0,1,1
Ralf Müller,40eca1ad-a035-4b86-ac67-2a4e2f67d23f,Ralf Müller,52.830589183403994,8.93872894279636,Süstedt,146.0,27305,Uenzer Dorfstr. 36,42000.0,10500.0,1,1
Kuunders Schweinemast  GmbH,957842c9-5e40-4caf-b13e-9c879e04e482,Kuunders Schweinemast  GmbH,49.187981381614,7.37124454607241,Hornbach,146.0,66500,Bickenaschbacher Hof .,180800.0,36200.0,0,0
"Schürmann, Dirk gr.",d02338c2-9389-40a7-8a95-f71eac0fc4ff,"gr. Schürmann, Dirk",52.9298644419424,8.11399182860813,Garrel,146.0,49681,Zum Baumweg 3,52500.0,10500.0,0,0
"Dorenkamp, Daniel",4343d57a-0cf5-465a-868d-1521f445a3ab,"Dorenkamp, Daniel",51.720957372361795,8.109849072364451,Beckum,146.0,59269,Unterberg I Nr. 19,44800.0,11200.0,1,1
Beketaler Schweinmast GmbH,c42c6d03-7b0b-4273-8258-58337ea82410,Beketaler Schweinemast GmbH,53.9029696614224,11.837118984041199,Jürgenshagen,146.0,18246,Dorfstraße 9,149900.0,14400.0,1,1
SPREEFA GmbH,bc905899-ff96-4258-9789-ea8360c9c19b,Schweinemastanlage Loeschen II,51.65454969575621,14.2695579081091,Drebkau,146.0,3116,Döbberner Weg None,123900.0,51500.0,0,0
"Lamping, Reinhard",e9e9baf3-91c5-4bce-8372-70aaff21381c,"Lamping, Reinhard",52.8275014866082,8.10270294940176,Emstek,146.0,49685,Cappelner Damm 14,36400.0,13100.0,1,1
SK Schweinehaltung Kemnitz GmbH,36286eb9-ac77-4c1f-9bd9-df0c8bd34b16,SK Schweinehaltung Kemnitz GmbH,52.1382242465141,12.9933357198323,Nuthe-Urstromtal,146.0,14947,Kemnitzer Hauptstraße 2,10400.0,10400.0,1,1
Agrarunternehmen Barnstädt e.G.,77a1007c-759b-4da4-9017-0c267d9bde6a,Schweinemastanlage Langeneichstädt,51.3424085821727,11.7274747019264,Mücheln (Geiseltal) OT Langeneichstädt,146.0,6268,Außenbereich None,68200.0,12600.0,1,1
Agrarunternehmen Barnstädt e.G.,77a1007c-759b-4da4-9017-0c267d9bde6a,Schweinemastanlage Bad Lauchstädt,51.39473327208079,11.8429599443466,Bad Lauchstädt,146.0,6246,Windmühlenstraße None,44100.0,10700.0,1,1
Agrarunternehmen Barnstädt e.G.,77a1007c-759b-4da4-9017-0c267d9bde6a,Schweinemastanlage Etzdorf,51.4278059161628,11.746429215319099,Teutschenthal,146.0,6179,Außenbereich None,186500.0,35700.0,1,1
"Göken, Margret",28902f70-53bf-4df8-8e6c-559bf72433e4,"Göken, Margret",52.90321398018829,8.02722994525208,Garrel,147.0,49681,Flugpatzweg 10,75800.0,13600.0,1,1
Abeler,2cbcb675-d83a-4374-94bf-29b3d91b068a,"Abeler, Annette u. Albert",52.0690666455081,7.45935753109179,Nordwalde,147.0,48356,Feldbauerschaft 13,91200.0,22800.0,0,0
Gut Bothmer Elmenhorst -Scheibler KG,f0dc629e-f09b-44bb-ada7-447908664627,Gut Bothmer Elmenhorst -Scheibler  KG,53.996191723388606,11.131424518191901,Kalkhorst,146.0,23948,Steinbecker Weg 14,154000.0,19600.0,1,1
Joachim Wicke,df1bd073-031d-434b-9a0f-747561667d9c,Joachim Wicke,52.87543404350221,9.02365409392366,Martfeld,146.0,27327,Hollen 6,43100.0,10700.0,1,1
Schweinemast E. Schulze Roberg,2a66b34b-5a5f-4bc9-9680-d0855860fb0e,Schweinemast E. Schulze Roberg Schweinemastanlage Engelswacht Schweinemast E. Schulze Roberg,54.207070358529606,13.1665062922103,Sundhagen,146.0,18519,Landstraße 16b,177200.0,39100.0,0,0
"Berssenbrügge, Maria",87bcc3bf-93bd-4c3c-a472-d5ea7f099712,"Berssenbrügge, Maria",52.816039503237896,7.8691441887344595,Lastrup,147.0,49688,Zuckerberg 1,62200.0,12900.0,1,1
Broermann,b343362f-fdff-48a1-8aef-504151c8fadd,A. F. Broermann GbR,51.999068244320405,11.838028176517598,Pömmelte,146.0,39249,Glinder Str. 21 None,109000.0,21800.0,0,0
"Per Kirketerp, Holger Kirketerp",a2e79c80-82a7-4e13-a820-7ca4f56ebd66,Schweinemastanlage Schkölen,51.04173558694671,11.838804211847403,Schkölen,146.0,7619,Zschorgulaer Str. 1,92100.0,21800.0,0,0
"Per Kirketerp, Holger Kirketerp",a2e79c80-82a7-4e13-a820-7ca4f56ebd66,Sauenzuchtanlage Thiemendorf,50.996082783866214,11.951414000511,Heideland,146.0,7613,Buchheimer Str. 1,312100.0,75300.0,0,0
"Per Kirketerp, Holger Kirketerp",a2e79c80-82a7-4e13-a820-7ca4f56ebd66,Schweinemastanlage Schöngleina,50.922425769264706,11.7272903494971,Schöngleina,146.0,7646,Dorfstraße 1,179300.0,40800.0,0,0
Quickhof GmbH & Co.KG,acd1fe4f-e207-4180-bb23-429492cbbd27,"Quickhof GmbH & Co.KG, SMA Lonnewitz",51.290918523944704,13.1518562336835,Oschatz,146.0,4758,Bornaer Straße 4,148200.0,26700.0,0,0
Uthlebener Qualitätsschweine GmbH & Co. KG,fbcbb05b-4b10-43ee-ae48-dcc0c4a9394e,Uthlebener Qualitätsschweine GmbH & Co. KG,51.452522186756,10.8124194442908,Heringen/Helme,146.0,99765,Steinbrücker Weg 13,316500.0,69800.0,1,1
Andresen GbR,3da61041-7dde-4c33-b9a0-0f7cb6b809ab,Schweineanlage Siedenbollentin,53.732885866201705,13.3875293159137,Siedenbollentin,146.0,17089,Am Silbermoor 4,70200.0,14500.0,1,1
"Plate, Alfred und Christian",7f3a3891-fa4e-4407-a5ee-cda1d4a954fa,"Plate, Alfred und Christian",52.1449197838855,6.97001446641402,Ahaus,146.0,48683,Brink 57,21900.0,11000.0,1,1
Schweinezucht Bühren GmbH,d0d6993c-98de-4edb-8683-db1e9db04cc1,"Schweinezucht Bühren GmbH Stratmann, André",52.8017717259006,8.17578298153936,Emstek,146.0,49685,Zum Brook None,60500.0,12100.0,0,0
Hubert & Ute Westhues,b16e2f2c-112f-4417-8a4f-6d9759262763,Gut Klenz Westhues KG,53.851750295966795,12.652236199520399,Jördenstorf,146.0,17168,An der K 49,95600.0,20700.0,1,1
"Bernd Rixen, Landschwein Rixen KG",d71ed7e5-2906-4d40-87c3-bb1ae67172c1,Landschwein Rixen KG,54.15943755619929,10.0538050464032,Wattenbek,146.0,24582,An der K 8,55700.0,10700.0,0,0
"Schmitz, Wolfgang",6b77a925-f8c3-4484-a1d9-f31a2f5b4ea7,"Schmitz, Wolfgang",51.6531875290393,6.19053952650175,Weeze,146.0,47652,Höst-Vornicker-Weg 1,23200.0,11600.0,1,1
Schweinemast Groß Bäbelin GmbH,f93b9b08-6bdd-4825-b3e2-4f92a6fe74ed,Schweinemast Groß Bäbelin GmbH,53.6413513245077,12.386319971131199,Dobbin-Linstow,146.0,18292,Dorfstraße 2,64500.0,24500.0,1,1
Tierproduktion Alkersleben GmbH,a0056c7b-db0a-498b-970b-9971d88a3881,Tierproduktion Alkersleben GmbH,50.8449315885901,11.0209433848453,Wipfratal,146.0,99310,Dornheimer Str. 1,26800.0,13400.0,0,0
Agrargenossenschaft Linda eG,4403e85c-37c7-40f6-983a-8462f67da154,Milchviehanlage Linda,50.809829573993504,12.209458252195,Linda b. Weida,141.0,7580,Rückersdorfer Str. 1,0.0,0.0,1,1
"SecAnim GmbH, NL Mützel",8c5b115c-3c2b-440f-a7e1-4e8ff24a04b0,"SecAnim GmbH, NL Mützel",52.3997517358064,12.192417202822304,"Genthin, OT Mützel",162.0,39307,Rauhes Gehege 1,0.0,0.0,0,0
"SecAnim GmbH, NL Mützel",8c5b115c-3c2b-440f-a7e1-4e8ff24a04b0,"SecAnim GmbH, NL Elxleben",51.0481816123795,10.9788714866129,Elxleben,162.0,99189,Riedfeld 7,0.0,0.0,0,0
Belmont Farm GmbH,a16e018f-8bc4-4af5-a44d-47e5faaff8a3,Belmont Farms GmbH,52.5214664783767,14.1465946636885,Müncheberg,146.0,15374,Bergstraße 8,139100.0,29500.0,0,0
Woestmann & Sohn,236a4cc0-8092-4ff4-9624-62883c920993,Schweinemastanlage Woestmann KG,51.4575450914291,11.830882616152596,Teutschenthal,146.0,6179,Hallesche Str. 5a,102200.0,21400.0,1,1
Suimax Greiz-Gommla Mastläuferproduktions- u. Handels- gesellschaft mbH & Co. Verwaltungs KG,fa75f7c5-71de-4ae6-8b6f-a40c425c35c9,Sauenzuchtanlage Greiz- Gommla,50.672290959570894,12.156927586259,Greiz,146.0,7973,Bretmühlenweg 1,75100.0,18400.0,0,0
Frank Lage,51c1c08d-2657-44bc-bdaf-8ef735f6fb54,Gut Neuwetterade,54.2434144667781,10.570530690567,Dannau,147.0,24329,Gut Neuwetterade None,18800.0,18800.0,1,1
Broilermast Vetschau e.g.,d7725b0f-dba5-4470-b307-aff7dd056bef,Broilermastanlage Vetschau,51.7682769957405,14.1058751786006,Vetschau/Spreewald,147.0,3226,An der B 115,85700.0,17200.0,1,1
"Schumacher,Enno",f1612009-be7e-42b1-98c4-38a519efeb09,Schweinemastanlage Am Balken,53.00982322845321,9.38332214786076,Westerwalsede,146.0,27386,Am Balken None,30000.0,10000.0,0,0
Agrargenossenschaft Löberitz e.G.,62116cbc-c42d-4b50-8210-681987186c2e,Agrargenossenschaft Löberitz e.G.  - Schweineanlage,51.6586358028312,12.1415546385879,Löberitz,146.0,6780,Reisterweg None,54200.0,10900.0,1,1
Agrargenossenschaft Löberitz e.G.,62116cbc-c42d-4b50-8210-681987186c2e,Schweinezuchtanlage Löbichau,50.8842524345844,12.2599658032805,Löbichau,146.0,4626,Saure Allee 26 d,57100.0,11600.0,1,1
"Austing,Josef gr.",3c7b3052-81e1-4697-a63e-3002a1d74d18,"Austing, gr. Josef",52.533592348695,8.25979086562859,Damme,146.0,49401,Oldorf 9,78000.0,15600.0,1,1
"Storkebaum, Ansgar",4eeb99fa-8ae4-4d56-bbac-84fa9aec7705,"Storkebaum, Ansgar",51.7698474253723,7.50271480918903,Lüdinghausen,146.0,59348,Westrup 38,53500.0,14500.0,1,1
"Voßmann, Andreas",87623753-9a95-49a4-836e-9a82a3c2a1fc,"Voßmann, Andreas",52.9330547989476,7.98780263358616,Garrel,147.0,49681,Lindenallee None,130600.0,22500.0,0,0
Liegaer Fleischproduktions GmbH,759b4271-7d8f-4afe-934d-bfc6540e9204,SMA Liega Lampertswalder Sachsenland Agrar ehem. Liegaer Fleischproduktion,51.3230566523874,13.7498276117661,Schönfeld,146.0,1561,Ponickauer Str. 2,92900.0,19000.0,1,1
SÜPRO GmbH & Co. KG,37499a8f-56db-49a5-9dcc-976c7f88c3b0,SÜPRO GmbH Südhessische Protein und Tierfettproduktion,49.609424372518,8.57974081653213,Lampertheim,162.0,68623,Außerhalb 5,0.0,0.0,0,0
"Thier, Caspar u. Antonius GbR",d402d5d4-3fa8-457b-8d45-1fdc28521cee,"Thier, Caspar und Antonius GbR",51.9703323722153,7.238416760875549,Billerbeck,147.0,48727,An der L 581/Königsweg 32,53200.0,13300.0,0,0
Meinering GbR,03426c3f-8b31-45aa-90aa-6a714f2ed00b,Meinering GbR,52.3922102204792,7.17060580751866,Engden,146.0,48465,Dorfstr. 5,42800.0,10700.0,1,1
"Brentrup, HugoLWB",18156a01-cacc-4307-9efe-7d0f4004da12,"Brentrup, Hugo LWB",51.712220557192104,7.478476809747982,Selm,146.0,59379,Nordkirchener Strasse 100,53000.0,10600.0,1,1
Tieraufzucht und Mast GbR,7e4902a6-d723-4f8c-8c3c-b6836babcd37,Tieraufzucht und Mast Dr. G. Gey Vogelsang 2,53.74923297151171,12.4289548104032,Lalendorf,146.0,18279,An der Kieskuhle 1,37300.0,21100.0,1,1
"Göken, Theodor",5a946acf-6a8e-45a7-84e2-16d919d3ee5f,"Göken, Theodor",52.9475872772379,7.95001660615861,Friesoythe,147.0,26169,Im Thülsfelder Sande None,71600.0,12600.0,1,1
Mochauer Landwirtschafts GmbH,82584d05-58f1-45e6-a01c-11e13a8ce35e,"Mochauer Landwirtschafts GmbH, SMA Präbschütz",51.124513156086394,13.2093540551589,Mochau,146.0,4720,Zur Jahnaquelle 22,117000.0,23400.0,0,0
Andreas Haneke,469808bc-7d69-4ad6-a001-bfa90b05a709,Andreas Haneke,51.839697032027594,9.297697608348688,Marienmünster,146.0,37696,Saumer 1,31800.0,10600.0,1,1
Timphaus Franz,f64514ec-1c71-42c0-a4f4-dbc6583728ca,Timphaus Franz,52.68545638917029,8.1538309636442,Lohne (Oldenburg),146.0,49393,Dinklager Landstraße 4,10100.0,10100.0,1,1
Gutshof-Ei Banzkow GmbH,47fa4a8b-28ed-4ca5-ac49-4705cca6f3e8,Gutshof-Ei,54.2345752331769,10.6942050991807,Groß-Rolübbe,147.0,24327,Farm Groß-Rolübbe 0,198500.0,19700.0,0,0
Gutshof-Ei Banzkow GmbH,47fa4a8b-28ed-4ca5-ac49-4705cca6f3e8,Legehennenanlage Curau Gutshof-Ei,53.9493103024669,10.627164153054801,Stockelsdorf,147.0,23617,Lübecker Landstr. 2,127100.0,12000.0,0,0
Kriebitzscher Agrargenossenschaft eG,efa54151-08d6-46e6-aa3a-ae2b7a938573,Schweinemastanlage Waltersdorf,51.038955006333396,12.387720646183698,Meuselwitz,146.0,4610,Wintersdorfer Straße None,66200.0,11600.0,0,0
ABS Agrarbetriebs-GmbH Schlettau,431d706a-f26d-4da7-bc54-fb18ad4b112e,ABS Agrarbetriebs-GmbH Schlettau,50.5486460421271,12.980446964348399,Schlettau,146.0,9487,Zschoeppelstraße 2,14300.0,14300.0,0,0
Stefan Gruß,1a8007d6-1754-47e6-8c28-da4f413863b9,Schweinehaltung Gruß Stefan Gruß,50.77191885406361,8.985605503521679,Stadtallendorf,146.0,35260,Am Trieb 4,32400.0,10900.0,1,1
SPREEFA GmbH,72fafbca-bef0-4d5b-880e-3b9b3d90b9c9,SPREEFA GmbH,52.0884832225819,12.0707038987239,Loburg,146.0,39279,Lindauer Chaussee None,124900.0,34100.0,0,0
"Agrar GmbH ""Am Straufhain""",b617743a-5350-461a-b0ad-be223d2b2193,"Rinder- u. Schweinemastanlage Streufdorf Agrar GmbH ""Am Straufhain""",50.35938124083071,10.6900157578466,Straufhain,146.0,98646,Steinfelder Straße 2,55500.0,11100.0,0,0
Gut Allmenhausen Franz Neumair,998db722-a72c-4a19-878a-214a141fbdee,Gut Allmenhausen Franz Neumair,51.2413559774053,10.7318400390096,Ebeleben,146.0,99713,Gutsbezirk 1,58200.0,11100.0,1,1
Mesa Agrar GmbH,2519c1f5-8524-4dd0-a614-153bc09b457a,MESA Agrar GmbH,52.807986253437996,11.8604218014046,Königsmark,146.0,39606,Feldstr. 27,125400.0,22100.0,0,0
Heiko Rau,b63c3afc-31f4-4291-8beb-5bd6c7b6302b,Schweinehaltung Rau,50.7780503301007,9.287076793018331,Alsfeld,146.0,36304,Dotzelrod 1,49200.0,12300.0,1,1
"Kenkel GbR, Franz-Josef und Markus",8f5c5245-be0c-4bea-8d7c-24a3552ea75b,"Kenkel GbR, Franz-Josef und Markus Kenkel, Franz-Josef",52.967509058039504,8.082563411591769,Garrel,146.0,49681,Schuldamm None,63000.0,12600.0,0,0
Esther Buchenau,62e40036-18cf-4972-8ef8-42b23bdea4db,Esther Buchenau Schweinemast,54.652438212134,9.82263427245076,Scheggerott,146.0,24392,Norderholz 2,15300.0,15300.0,0,0
van Gennip Tierzuchtanlagen GmbH & Co. KG,74544b1a-4653-4f04-8c88-8f88893ba714,Schweineanlage Sandbeiendorf,52.3889714958577,11.720543285910301,Burgstall OT Sandbeiendorf,146.0,39517,Gewerbegebiet 1,642000.0,128000.0,1,1
"Tranel, Alfons",f63e0706-6e91-447f-bf01-e71fcafb5e9b,Tranel Alfons,52.525476918643,7.24391044378348,Wietmarschen,146.0,49835,Bergstr. 4,42800.0,10700.0,1,1
"Agrar GmbH "" Am Dün"" Deuna",f4c86395-225e-4747-9f9c-7367c120c842,Sauenzuchtanlage Rüdigershagen,51.351424760324896,10.4487070630181,Niederorschel,146.0,37355,Deunaer Str. 21L,98800.0,21900.0,1,1
"Stegemann, Lothar",11f84c7d-4599-4f8a-a100-94c6c29bbbfd,"Stegemann, Lothar",52.346768702853495,7.7060421521428095,Recke,146.0,49509,Püttenbeckstraße 37,76500.0,15300.0,1,1
Agrar-Produktivgenossenschaft Prießen eG,f63bc62a-f5f0-4300-bcaf-fdbf4fae53d3,Schweinemastanlage Werenzhain,51.658110775950796,13.500545329995198,Doberlug-Kirchhain,146.0,3253,Am Waldrand None,70100.0,14200.0,0,0
"Loose, Franz-Josef",4cd80f09-77a3-43fc-9833-7c89537fbf04,"Loose, Matthias",52.2943662660215,7.52556076952671,Rheine,146.0,48432,Zum Schwatten Pohl 19,51500.0,10300.0,1,1
Heiner Bremer GbR,5f1209fa-e3c2-4b24-935a-6de0c2858d6b,Udo Bremer,51.5358886883862,9.269888969368079,Borgentreich,146.0,34434,Waterfeld None,43600.0,10900.0,1,1
Görtz Sonnewalde GmbH & Co. Landwirtschaftsbetrieb KG,a74a95ca-5828-4e4d-adc9-2ca6ac8dbc54,Schweinezucht- und -mastanlage Sonnewalde,51.690633642373705,13.6215088927894,Sonnewalde,146.0,3249,Kirchhainer Straße 12,199900.0,40700.0,0,0
Qualitätsferkelhof Dörgenhausen,11cd4111-d37d-4a61-8966-18d890822afb,Qualitätsferkelhof Dörgenhausen,51.4089143963295,14.246030666920099,Hoyerswerda,146.0,2977,Wittichenauer Str. 95,80100.0,14900.0,0,0
Friedländer Immobilien- und Beteiligungsgesellschaft mbH & Co. KG,6680f70b-19a2-494d-a222-320cdc8cc2f3,Junghennenaufzuchtanlage Dishley,53.72570506701511,13.4755530709234,Friedland,147.0,17098,Hauptstraße 25,61000.0,12500.0,1,1
Rene Hermanus Johannes Asbreuk,266efe6e-ded8-43bd-8f5c-ba45b5016581,"Asbreuk, Rene",52.1721026749391,6.92045597345922,Ahaus,146.0,48683,Alstätter Brook 44,43800.0,12400.0,0,0
Maria Henkel,2b43ca90-9f29-4766-8e36-7c0dfd7e69d3,Gebrüder Linder GbR Maria Henkel,51.0268137102744,12.6840984391624,Narsdorf,147.0,4657,Bruchheim 20,69400.0,69400.0,0,0
Ralf Nolte,3d01fca4-2f9c-4087-a210-7dd66f018907,Ralf Nolte,52.8711662437804,8.934497066927019,Süstedt,146.0,27305,Kuhweide None,65400.0,18200.0,1,1
Saatzucht Steinach GmbH & Co. KG,1abfb939-b97e-473a-89bb-2a8688922578,Schweineanlage Bornhof,53.47773400347821,12.9063773311239,Ankershagen,146.0,17219,Am Hang 1,43500.0,10900.0,1,1
Saatzucht Steinach GmbH & Co. KG,1abfb939-b97e-473a-89bb-2a8688922578,Schweineanlage Ballin Schweineanlage Ballin,53.4592742825267,13.4331033410435,Lindetal,146.0,17349,Zur Alten Schmiede 22,79500.0,14600.0,1,1
"Töhle, Werner",72eb5278-9a29-46fc-a7c6-9d4b9e5e982f,Kreutzmann Rainer Thöle Werner,52.781977509190995,8.24352922101735,Vechta,146.0,49377,Alte Dorfstraße 4,50000.0,12500.0,0,0
Alexander Osterhuber,c05ad243-32ba-43b1-8733-e45497187268,Schweinemastanlage Oschätzchen Schweinemast Oschätzchen GmbH,51.4826946580927,13.387818654743901,Bad Liebenwerda,146.0,4924,Dorfstraße 63,271100.0,58200.0,0,0
EHLEGO Landhof GmbH,2e870a32-e517-4a63-9473-22d6a7292ca3,Legehennenanlage Roggosen,51.7146871829699,14.4496849274135,Neuhausen/Spree,147.0,3058,An der alten F 115,165200.0,32400.0,1,1
EHLEGO Landhof GmbH,2e870a32-e517-4a63-9473-22d6a7292ca3,Legehennenanlage Koppatz,51.6949805902185,14.4464515202185,Koppatz,147.0,3058,Am Hühnerhof 1,89200.0,15200.0,1,1
Wirth GmbH,5a332d02-b63b-4940-999a-86c5517391b9,Wirth GmbH,49.7239514636858,10.693183538954699,Wachenroth,147.0,96193,Warmersdorf 60,92300.0,17500.0,0,0
Agrar GmbH Wildau-Wentdorf,40769ff5-b0da-4702-9299-5b96f8e27ba6,Agrar GmbH Wildau-Wentdorf,51.893836496252696,13.555886913236101,Dahmetal,146.0,15936,Wildau-Wentdorf 18,77300.0,16800.0,1,1
TQS Veterinärgesellschaft mbH,ebbeb526-7b28-4e61-8c1d-cf099a0393af,TQS Veterinärgesellschaft mbH,51.4719763871544,10.278774151312598,Teistungen,146.0,37339,Am Dämmig 24,67200.0,12700.0,1,1
Tierzucht Packisch GmbH & Co KG,3f33bc19-4109-4a36-93a5-064045d4a423,Tierzucht Packisch GmbH & Co KG,51.5222568318668,13.155016476666999,Arzberg,146.0,4886,Betonstraße 1,83800.0,21400.0,0,0
LSM Schweinemast GmbH & Co. KG,f01cfa80-1e2a-4285-a84d-a40febbc6467,LSM Schweinemast GmbH & Co. KG,51.4855362036621,12.8694715434074,Mockrehna,146.0,4862,Wildschützer Str. 13,148000.0,30800.0,0,0
Klaus Naber,bf57d6f7-af53-4e45-9315-87357fc728d9,Klaus Naber,52.7060980599646,8.465862000393749,Barnstorf,146.0,49406,Moorweg 49,31400.0,10400.0,1,1
Brüterei Süd ZN d. BWE-Brüterei Weser-Ems GmbH & Co. KG,4fefd0c2-1fb0-4df3-ad3b-cdbc7504749c,Brüterei Süd - Farm Kaulhausen,49.0837617091416,12.0258917152699,Lappersdorf,147.0,93138,Kaulhausen 39,195600.0,41700.0,1,1
Brüterei Süd ZN d. BWE-Brüterei Weser-Ems GmbH & Co. KG,4fefd0c2-1fb0-4df3-ad3b-cdbc7504749c,Brüterei Süd - Farm Oberhub,49.1439298540121,12.072483004219599,Regenstauf,147.0,93128,Oberhub 1,288000.0,62700.0,1,1
Brüterei Süd ZN d. BWE-Brüterei Weser-Ems GmbH & Co. KG,4fefd0c2-1fb0-4df3-ad3b-cdbc7504749c,Brüterei Süd - Farm Moosham,48.9215872694961,12.2714212367358,Mintraching,147.0,93098,Regensburger Str. 56,183100.0,39500.0,1,1
Brüterei Süd ZN d. BWE-Brüterei Weser-Ems GmbH & Co. KG,4fefd0c2-1fb0-4df3-ad3b-cdbc7504749c,Brüterei Süd - Farm Kürnberg,49.155993234204594,12.056504046312499,Regenstauf,147.0,93128,Kürnberg 10,291000.0,64200.0,1,1
GePo GmbH & Co KG,b761a844-b025-4b3e-92d2-640c65512b63,GePO GmbH & Co. KG,53.1775906387239,7.61574065999163,Ostrhauderfehn,147.0,26842,Farnweg None,45100.0,11800.0,0,0
VZ Visbeker Zuchtschweine GmbH & Co.KG,e86ae29b-9c7a-405e-9189-05ed1f885efa,VZ Holterhagen GmbH,52.7817948619105,8.33137936785115,Visbek,146.0,49429,Norddöllen 90,108300.0,21800.0,0,0
Agrargenossenschaft Kropstädt e.G.,91836ebc-42c7-4da9-8781-3fb48a760ca4,Agrargenossenschaft Kropstädt e.G.,51.895381051217896,12.7103002259319,Euper,146.0,6888,Dorfstraße None,355500.0,80500.0,0,0
Putenmast Husemann,40d1d079-0122-4a88-8048-b9db04d327d7,Putenmast Arnold Husemann - Breitenbach,51.5386149252719,11.118037956437302,Sangerhausen,147.0,6526,Roßlaer Str. 1 None,143900.0,23400.0,1,1
"Ahrens, Christoph",235dca3d-9ccb-4327-8bb0-7fe3894fe836,"Ahrens, Christoph",52.77281670145929,7.921510829116159,Lastrup,147.0,49688,Suhler Mark 2,50500.0,10100.0,1,1
Landwirtschaftsbetrieb Gerrit Meyer,ed532fa9-3dc4-4e94-832b-1c51d57c0307,Landwirtschaftsbetrieb Gerrit Meyer,51.644699387727,12.028821795466197,Zörbig,146.0,6780,Zur Fuhne 1,42000.0,14000.0,1,1
Schweinezucht Klein Laasch GmbH,c3130099-dd98-4327-a895-99d062a7bb46,Schweinezucht Klein Laasch GmbH Schweinemast- und Sauenanlage,53.35345310959021,11.5722572091075,Neustadt-Glewe,146.0,19306,Hauptstraße 13,77500.0,14700.0,0,0
GF Herr Herrmann,6892c15c-f5ab-41ba-b65e-323d6dc4d4f3,Agrar Produktions- und Handelsgesellschaft mbH Scharfenberg,51.112875297194606,14.8562126246456,Markersdorf,146.0,2829,Ortsstr. 200,120500.0,19700.0,1,1
GF Herr Herrmann,6892c15c-f5ab-41ba-b65e-323d6dc4d4f3,Schweinemastanlage Bärhaus,51.460990566086,13.7771122479003,Lauchhammer,146.0,1979,Forststraße 15,44400.0,11600.0,1,1
GF Herr Herrmann,6892c15c-f5ab-41ba-b65e-323d6dc4d4f3,"Skassaer Landschweinehof , GF Herr Hermann",51.2761374465569,13.4754515022046,Großenhain,146.0,1558,Lindenallee 1,96300.0,20200.0,1,1
"Preut, Anne",27641a67-ed32-4a03-b861-9a5449ee574a,"Preut, Anne",52.9871796946319,7.856560204018542,Friesoythe,146.0,26169,Pehmertanger Straße 4,57500.0,11500.0,1,1
Fläming Farm eG,2c68ac4f-d734-46a5-96a8-ccb72cf09da8,Fläming-Farm eG,52.053643605469,12.499750836803301,Wiesenburg/Mark,146.0,14827,Dorfstraße 35,71500.0,25000.0,1,1
Dr.E.Gey/ R.Gey,1d6c84e6-86af-4d1b-8ce1-6a415099bd0b,Dr. Gey & Söhne GbR Sauenanlage Vogelsang,53.74139561004871,12.4053188702408,Lalendorf,146.0,18279,Straße der Jugend 20,61200.0,10700.0,0,0
Ch. Borgmann,8a8b8625-586e-4a78-b45c-300b2061b28f,Qualitätsschwein Zimmernsupra,50.9883138117465,10.8712354895329,Zimmernsupra,146.0,99100,Ermstedter Str. 1,21800.0,10900.0,1,1
GGAB Agrarbetrieb Groß Grenz GmbH,fae96764-b574-4eb2-b140-f265661b6239,GGAB Agrarbetrieb Groß Grenz GmbH,53.974510019538,12.0946585097402,Benitz,146.0,18258,Dorfstraße 1a,55000.0,10900.0,0,0
Agrarbetrieb Meyer KG,f09b4ea5-d413-494a-9bf9-bfebde3f1815,Agrarbetrieb Meyer KG,53.355443027776786,11.9060975645985,Tessenow,146.0,19376,Ringstraße 8,53500.0,10700.0,1,1
Tiergut Zwethau GmbH Schweinemastanlage Zwethau,a283a7f0-883f-4e11-a84a-e08733665e42,Tiergut Zwethau GmbH Schweinemastanlage Zwethau,51.587175754320704,13.057543279911098,Beilrode,146.0,4886,Züllsdorfer Str. 14,326300.0,65100.0,0,0
Bring Bau KG,e71a887f-b4c6-40d0-8fb4-8bfe3ec5ebe8,Bring Bau KG,54.8135330230373,8.858958614812881,Bosbüll,146.0,25899,Schanzweg 0,97400.0,15900.0,0,0
"Jeiler, Markus",e03687e6-e515-4cf1-891b-57362bd2fe32,"Jeiler, Markus",51.852128898988106,7.4139107453580495,Dülmen,146.0,48249,Feldmark 5,52800.0,13100.0,1,1
Agrargenossenschaft Pretzsch e.G.,aba496a2-3636-4d09-be76-d6b019c23abf,Agrargenossenschaft Pretzsch e.G. Agrargenossenschaft Pretzsch e.G.,51.7272105220708,12.7554258872787,Merschwitz,146.0,6909,keine Angabe None,62000.0,12400.0,0,0
B.u.F. Hinners Krogmann GbR,7282b8a4-126c-40d1-ba96-c2af63636030,Schweinemastanlage Bresegard,53.24864212093871,11.3795949981497,Bresegard bei Eldena,146.0,19294,Dorfstraße 6a,57000.0,14200.0,0,0
Wulfa-Mast GmbH,5160387a-9b0a-4624-b122-6920becbe751,Wulfa-Mast GmbH,52.6870834576521,8.04829942002076,Dinklage,146.0,49413,Mühlenstraße 4,67500.0,13500.0,0,0
W & P Agrar Handels GmbH,a2d605b6-cd14-4c40-b188-2fe034602dc7,Agrarproduktion Oldisleben GmbH,51.7061070244941,12.9042186910214,Axien,146.0,6925,Düßnitzer Straße 34,153000.0,30600.0,1,1
W & P Agrar Handels GmbH,a2d605b6-cd14-4c40-b188-2fe034602dc7,W & P Agrar Handels GmbH - Schweinemastanlage Oberheldrungen,51.2845074170533,11.250296305898399,Oberheldrungen,146.0,6577,An der Trift 7,119300.0,19200.0,1,1
"Hemann, Stefan",68ec60e9-f506-4b0e-b391-e48d4b52f5a4,"Hemann, Stefan",52.5030238435121,7.81438766983899,Merzen,147.0,49586,"Osterodener Weg 46, 47",73500.0,14700.0,1,1
Agrargenossenschaft Neuzelle eG,8f8f30ef-de6a-4f0f-bcec-1d41af25261e,Agrargenossenschaft Neuzelle eG,52.075444001072995,14.7138250923559,Neißemünde,146.0,15898,Straße der Einheit 20,20300.0,10100.0,1,1
Schweineaufzucht Drahnsdorf KG,58ede731-7623-4609-8899-a52fe9ce819a,Schweineaufzucht Drahnsdorf KG,51.9242080800767,13.5800572387689,Drahnsdorf,146.0,15938,Schulstraße 3,23800.0,11200.0,1,1
"Hatgering, Wilfried",a21d87a1-5001-4aab-a693-5666030c4a6c,Hartgering Wielfried,52.4889399507145,7.13032969281253,Nordhorn,146.0,48531,Petkuser Straße 32,65100.0,13100.0,0,0
Deutsche Marken-Ei GmbH & Co.KG,b79ba3cb-2b43-4510-a594-2cb8dbbb1b2a,Legehennenanlage Taucha,51.388067930286596,12.5662144197795,Taucha,147.0,4425,Betriebsstraße MB 1,104100.0,22000.0,0,0
Deutsche Marken-Ei GmbH & Co.KG,b79ba3cb-2b43-4510-a594-2cb8dbbb1b2a,Legehennenanlage Wandersleben,50.891648181785094,10.868595358285198,Drei Gleichen,147.0,99869,Das Steinfeld 2,107000.0,28400.0,0,0
Deutsche Marken-Ei GmbH & Co.KG,b79ba3cb-2b43-4510-a594-2cb8dbbb1b2a,Legehennenanlage Dillstädt,50.59338910976111,10.5312910322859,Dillstädt,147.0,98530,Bodenweg 1,87500.0,14300.0,0,0
Broiler Geflügelerzeuger GmbH Wietmarschen & Co.KG,6981a47a-395c-4d29-8c9e-f4c17a7755fc,Broiler Geflügelerzeuger GmbH. Wietmarschen &Co.KG,52.5415808274591,7.2240671782492685,Lingen (Ems),147.0,49808,Mühlengraben 9,56000.0,11200.0,0,0
Agrargenossenschaft e.G. Günthersdorf,3fb5abe3-1cb2-42cf-94ac-722f4ffb702f,Agrargenossenschaft e.G. Günthersdorf,52.0859631337648,14.3022766068734,Friedland,146.0,15848,Günthersdorf 16,53700.0,11400.0,1,1
Sauenhaltung Farnstädt GmbH & Co. KG,bd8f7485-c901-4b43-9510-57c1feab4c25,Sauenhaltung Farnstädt GmbH & Co. KG,51.433489698016004,11.568014621724998,Farnstädt,146.0,6279,Weinbergsiedlung 30,32400.0,10800.0,1,1
Schweineproduktion Kodersdorf GmbH,7ce4e490-fd5f-4e9b-bf31-0e34db9cc81b,Schweineproduktion Burkersdorf GmbH,50.822967389100796,13.4761896352494,Frauenstein,146.0,9623,Freiberger Str. 8,168000.0,31300.0,0,0
Schweineproduktion Kodersdorf GmbH,7ce4e490-fd5f-4e9b-bf31-0e34db9cc81b,Schweineproduktion Kodersdorf GmbH,51.2359109949079,14.9039149610242,Kodersdorf,146.0,2923,Straße der Freundschaft 26,33700.0,11400.0,0,0
Schweineproduktion Kodersdorf GmbH,7ce4e490-fd5f-4e9b-bf31-0e34db9cc81b,AGRÖ Horka GmbH,51.3198106132532,14.908374851043902,Horka,146.0,2923,Am Eichbusch 15,60200.0,15300.0,0,0
Hego Düngemittelwerk GmbH,5b93574a-a6c1-4706-924d-164ffe59f27a,Hego Düngemittelwerk GmbH,49.7826442962863,8.40744095011069,Gimbsheim,147.0,67578,Im Königsgarten (Außenbereich) None,138100.0,28200.0,0,0
A + J Agrar GmbH & Co. KG,f0ecd057-457a-4161-be74-af220e531928,A + J Agrar GmbH & Co. KG,51.216045887327496,11.508174618792,Finneland,146.0,6647,Kahlwinkeler Straße 2,61100.0,13000.0,1,1
Zoll,78df54e5-e15d-4e04-b83a-ba8530f0ef77,Michael Zoll,49.24820853652,10.2629449147777,Wörnitz,146.0,91637,Mittelstetten 6,46400.0,11600.0,0,0
CAE Geflügel GmbH,2d830114-a499-42e1-b33f-943549935e80,CAE Geflügel GmbH,50.8930525792305,10.8287643875817,Wandersleben,147.0,99869,Das Steinfeld 41,750000.0,123000.0,0,0
Johann Wüllmers,d9bdcd08-7dd1-443e-b9da-02e6cb96c71d,Johann Wüllmers,52.8514253546241,8.93516533217973,Süstedt,146.0,27305,Im Ortfeld None,41600.0,10400.0,1,1
Prignitzer Landschwein GmbH & Co. KG,72f2b289-e665-4b63-b7bd-40034fa8f151,Zweite Prignitzer Mastschwein GmbH,53.0617057845469,12.228918444039099,Gumtow,146.0,16866,Woltersdorfer Weg 10,54500.0,10900.0,1,1
Prignitzer Landschwein GmbH & Co. KG,72f2b289-e665-4b63-b7bd-40034fa8f151,Prignitzer Landschwein GmbH & Co. KG,53.165422883145396,12.0632072401345,Groß Pankow (Prignitz),146.0,16928,Koloniestraße 13,68100.0,23600.0,1,1
AGN Agrargesellschaft mbH Neunheiligen SZA Bothenheilingen,c64ab559-a19e-4735-aa38-129ca72df0ab,AGN Agrargesellschaft mbH Neunheiligen  SZA Bothenheilingen,51.182333066192506,10.6299384469866,Bothenheilingen,146.0,99947,Feldstrasse 1,51600.0,13500.0,0,0
Manning GmbH & Co. KG,62e517c0-a383-4f72-9bba-64f6506758fe,Manning GmbH & Co. KG,52.6267653833998,6.73554774098926,Laar,146.0,49824,Bültendiek 3,79400.0,20400.0,0,0
"Drees, Heinrich",b6df4927-9be3-4ca6-8b0e-694d104718b7,"Drees, Heinrich",52.7474657961384,7.82060769453417,Löningen,146.0,49624,Eichenstraße 11,46800.0,11700.0,1,1
Gut Klein Wanzleben GmbH & Co. KG,2c027ddf-87e6-447b-acdc-ba15f0577275,Gut Klein Wanzleben GmbH & Co. KG,52.0626866222105,11.369487075726399,Klein Wanzleben,146.0,39164,Bottmersdorferstr. 12,447800.0,93200.0,1,1
SMS Besitz GmbH & Co KG,6002b6bd-8060-4a09-b1b1-32849df5196c,SMS Besitz GmbH & Co KG SMS Besitz GmbH & Co KG,51.8739852142021,10.926029426254301,Derenburg,146.0,38895,Im Freien Felde None,73600.0,20300.0,0,0
"Putenmast Meeschen GbR Schöning, Hans",2255dc1c-3c35-4a1e-8974-1bfb1d9911ee,"Putenmast Meeschen GbR Schöning, Hans",53.009313651671896,7.904386101973809,Bösel,147.0,26219,Ziegelmoor None,101000.0,20200.0,1,1
Agraset-Agrargenossenschaft e.G.,84796e8a-079c-4a91-b9bd-737a473423ed,Agraset- Agrargenossenschaft eG. Naundorf,51.0170310218161,12.906264510461302,Erlau,146.0,9306,Am Lagerhaus 1,64100.0,17500.0,0,0
Hollenbacher Agrar GmbH & CoKG,066cbabb-d851-4469-91bb-3ac59f4883da,Bollstedter Schweinemast GmbH - Sauenzucht Hollenbach,51.239841136702296,10.3858026964069,Anrode,146.0,99976,Dorfstraße 19 a,72600.0,14200.0,1,1
Rainer Bittner Schweinemast Döcklitz,6865e5c0-f80d-4105-b685-18fa92d132f4,Rainer Bittner Schweinemast Döcklitz Rainer Bittner Schweinemast Döcklitz,51.4037294879698,11.588016347542698,Obhausen,146.0,6268,Unterfarnstädter Weg 1 None,67100.0,12700.0,0,0
Truthahnfarm Sambach GmbH,1748af51-45c9-4f17-bb7d-8b6d89bc8cde,Truthahnfarm Sambach Agrar KG,51.22584299890929,10.417047565472199,Mühlhausen,147.0,99974,Sambacher Weg 35,152200.0,14800.0,1,1
Schulz-Gahmen Werner,a76cc308-67c0-4302-90fb-40ae64d5b33a,"Schulz-Gahmen, Werner LWB",51.6826795824395,7.54940855594421,Werne,146.0,59368,Selmer Landstr. 210,84400.0,16900.0,1,1
Averkamp KG,18d17422-33be-46a6-827c-4391fb23724b,Averkamp KG,52.6031323025338,14.3668100595594,Gusow-Platkow,146.0,15306,Gut Karlshof 8,76800.0,18500.0,0,0
Agrar e.G. Waltershausen,60819db2-7c26-4b50-b06a-d3bcfa06f779,Agrar e.G. Waltershausen,50.92187088173161,10.5962178154928,Hörsel,146.0,99880,Auf der Hohle 1,329300.0,59900.0,1,1
Sauenzuchtanlage Nebelschütz GmbH,d153ea0d-0139-4926-9816-3383cdbd418b,Sauenzuchtanlage Nebelschütz GmbH,51.25905777117121,14.1585836906546,Nebelschütz,146.0,1920,Lindenstr. 16,76400.0,16600.0,0,0
Christiane Schulz,300a5b9f-0bac-41bf-8727-870d63a4f89f,Wiesbyller Schweine KG,54.5832967151883,9.31739298095564,Sollerup,146.0,24852,Mühlenweg None,95100.0,18600.0,1,1
"Klaus, Christoph",34c045d4-c4a6-4fbd-a5ed-858dcddc8a96,"Klaus, Christoph",52.834330387633,8.21242637867091,Emstek,150.0,49685,Garther Kirchweg / Garther Straße 24-26 / 37,38300.0,11500.0,1,1
Landwirtschaft Klostermansfeld GmbH & Co. KG,0d11ec1c-8a34-4f85-950a-0e07f7ae6961,Landwirtschaft Klostermansfeld GmbH & Co. KG,51.5799935563382,11.499936275552402,Klostermansfeld,146.0,6308,Volkstedter Weg 3,58600.0,10800.0,0,0
Hendrik Wenker,dc6d81f9-057a-4fb1-b74c-bce4eadc290d,"Wenker, Hendrik",52.076975404081296,7.132052813635871,Schöppingen,147.0,48624,"Schöpp.- Fl. 53, Fl.-Stck. 6 (Gemen None",52800.0,11700.0,1,1
Matthias Willenborg,3d30f88f-e153-4a08-9369-f1f755f9381b,"Willenborg, Matthias",52.971739703004104,8.09382123616197,Garrel,147.0,49681,Südstraße 16,96100.0,18900.0,1,1
Nova Weickelsdorf GmbH & Co. KG,40cf3f76-d654-4673-a821-73d3380af3d9,NOVA Weickelsdorf GmbH & Co. KG-Thierbach,51.049791901842795,11.9694992759042,Meineweh,146.0,6712,Kuhlede 1-2,240300.0,47700.0,0,0
"Rölver, Alfons",b06549a8-6a96-48ac-93fd-4c67f1d1d4f3,"Rölver, Michael",52.034099754301,7.499193918476889,Altenberge,146.0,48341,Hohenhorst 66,50000.0,10000.0,1,1
Tierzucht GmbH Langenbernsdorf,af8330bd-d08e-47b3-b2de-4d1693aa47cf,Schweinezuchtanlage Langenbernsdorf,50.7440015221006,12.307776804305,Langenbernsdorf,146.0,8428,Bahnhofstraße 7,73300.0,18600.0,0,0
SMW GbR,f33e2e81-a563-4d0c-bad9-29cbda2db4f6,SMW GbR,52.7030937497999,10.505332938919901,Dedelstorf,146.0,29386,Am Mühlenfeld 4,33200.0,11200.0,0,0
Helmut Barking,128078cd-3158-44ed-98cd-a8f4ae9404c5,Helmut Barking,52.5173445758109,8.450837743617821,Brockum,147.0,49448,Moordamm 140,44800.0,10800.0,0,0
Germer Paul,c9f6a3c7-e7cf-4711-9c2a-1de7e340303b,Germer Paul,52.5270633635906,7.2539012307669815,Wietmarschen,146.0,49835,Bergstr. 11,62800.0,15700.0,1,1
SZK Schweinezucht GmbH,19b009d4-37f1-4b36-9254-1c1b6d30c1d7,SZK Schweinezucht GmbH,53.68484536350449,12.318193569858598,Kuchelmiß,146.0,18292,An der Landstraße 1,22400.0,10200.0,0,0
Smits GmbH,39b4ccf3-0a4f-4444-8097-01defdfe71b3,Smits GmbH,51.576751003132,6.16676415224422,Weeze,147.0,47652,Am Bruch 27,23000.0,11500.0,0,0
Geflügelhof Reinhard Möllenbeck,e40d22bc-ee3b-4b84-80d3-1399ce47d4a1,Geflügelhof Reinhard Möllenbeck,51.596422495525296,8.64624814801682,Büren,147.0,33142,Rhön 1,67800.0,11300.0,0,0
VABOR Agrarproduktion GmbH,d7472c5b-c3b3-4734-9730-64c1150f919d,"Tiergut Elbland GmbH, SZA Gallschütz",51.1957206749749,13.0270790670584,Großweitzschen,146.0,4720,"Flurstücke 90/6, 90/7, 91/2 None",64700.0,13200.0,0,0
VABOR Agrarproduktion GmbH,d7472c5b-c3b3-4734-9730-64c1150f919d,VABOR Agrarproduktion GmbH SMA Streumen,51.350925240203885,13.372199383201,Wülknitz,146.0,1609,Neudorfer Str. 2,393000.0,78600.0,0,0
Heinrich Henke,e4e74da6-81c7-4baf-8520-c8528a22eb9e,Heinrich Henke,52.8434422119656,9.00320699012778,Bruchhausen-Vilsen,146.0,27305,Am Hauptkanal 3,47600.0,11200.0,1,1
Schweinemast Gutenswegen GmbH,4426ab76-fbd2-407d-81ce-e03a0620803c,Schweinemast Gutenswegen GmbH,52.2259018613272,11.4887589847346,Niedere Börde,146.0,39326,Hermsdorfer Weg 4 4,58100.0,12700.0,1,1
Drs. Eggert/Bremen,7137e20a-25e0-42e5-8064-0523b61cd6b2,PORKUS BÜSSEN GmbH,52.7718258390928,11.2452446094306,"Salzwedel, Hansestadt",146.0,29410,Büssen 1,11400.0,11400.0,0,0
"Beuckmann, Hildegard",f4ce906a-8127-4033-b263-27aee8970765,"Beuckmann, Hildegard",51.792135339374,7.673923623698701,Ascheberg,146.0,59387,Im Hagen 35,37500.0,12500.0,1,1
"Pagenkamp-Emke, Brigitte",24c0a16f-84c0-4ba9-af2a-2384836b2131,"Pagenkamp-Emke, Brigitte",52.8315257158894,8.05817820244974,Cloppenburg,146.0,49661,Cappelner Straße 47,42000.0,10500.0,1,1
Eggersdorfer Schweinezucht KG,e57b798a-3030-490e-bb63-166af72c35ea,Eggersdorfer Schweinezucht KG,52.4822640238248,14.1118350528808,Müncheberg,146.0,15374,Müncheberger Straße 6,13100.0,13100.0,1,1
Agrargenossenschaft e.G. Ballerstedt,0fbe725c-78d2-4706-abd7-d82f4afbdb22,Agrargenossenschaft e.G. Ballerstedt,52.7903791061653,11.713864850352499,Zedau,146.0,39606,Feldmark None,51500.0,10800.0,1,1
Landgut Ostelbien KG,3c066744-fc3d-49a4-9d05-5c7ee9d6706f,Landgut Ostelbien KG,51.586541359757604,13.0567041935896,Beilrode,146.0,4886,Alte Züllsdorfer Str. 14,70000.0,14000.0,0,0
"Tenhagen, Hermann und Guido",ffe0790e-5146-48d4-8517-1014ffa0e8b7,"Tenhagen, Hermann und Guido",52.1549307012422,6.91096450608009,Ahaus,146.0,48683,Alstätter Brook 2,59700.0,14300.0,1,1
"Schulze Spenneberg, Bernd",3b203274-9b14-4300-9fcc-186c6ff19b9d,"Schulze Spenneberg, Bernd",52.1342545271175,7.374874938190839,Steinfurt,146.0,48565,Burgsteinfurter Straße 161,91000.0,18200.0,1,1
HGS-Hirschfelder Geflügel & Spezial GmbH,56b3fa71-0404-4875-b04d-9f26f496ab32,HGS - Hirschfelder Geflügel & Spezial GmbH,51.0296412781991,13.342722713752801,Reinsberg,147.0,9634,Reinsberger Str. 24,95600.0,23900.0,0,0
Kluczka GmbH,0e11d775-1425-4dac-96fa-0464e8953e2e,Putenmastanlage Wolmirsleben,51.95927710155871,11.470144724181399,Wolmirsleben,147.0,39435,Schwanebergerweg None,196500.0,39300.0,1,1
Farm Hötensleben GmbH,a040d6a1-2fb4-4e5e-b860-2f92a6387543,Farm Hötensleben GmbH,52.071227006396796,11.042064208676901,Wackersleben,147.0,39393,Hamerslebener Weg 1-3,49300.0,12800.0,0,0
Steffen Gellert,e6a3dade-ea59-4636-9016-7a23622ab549,Steffen Gellert,53.8201804078868,9.07841206381283,Balje,146.0,21730,Hörne West 43,47200.0,12000.0,1,1
Kai Thomsen,d1d302d0-6947-4997-80c0-9b9b3e988d6a,Kai Thomsen - Mastschweinehaltung,54.01555557557771,9.036459309986867,Barlt,146.0,25719,Kamp 1,40500.0,13500.0,1,1
Agrar GmbH Holleben,5cdd3771-5d34-4427-bbf1-95de54a0ec9e,SMA Burgsdorf,51.5776709808563,11.6559461042305,Lutherstadt Eisleben,146.0,6295,Am Holzrain 2,49000.0,13000.0,0,0
Gröting GmbH & Co.KG,456c94c2-e910-4c51-b76c-80c983c8677a,Gröting GmbH & Co. KG,51.936100048682796,6.855360228176791,Südlohn,146.0,46354,Borkener Str. 3,64700.0,11900.0,0,0
Ferkelproduktion Agro Pig GmbH & Co. KG Niederzimmern Herr Wolfgang Schirber,065cfeb9-c1c7-45ef-b5ca-071091a5194c,Ferkelproduktion Agro Pig GmbH & Co. KG Niederzimm / SZA,51.001316975104295,11.193316559532098,Niederzimmern,146.0,99428,Hopfgartener Str. 4,73700.0,16000.0,1,1
"Hölscher, Werner",0c4a1db2-d0b6-433a-b010-c02ea867b129,"Hölscher, Werner",52.40034930946779,7.339419043342482,Emsbüren,146.0,48488,Helschen 9,52100.0,10500.0,1,1
H+V Schweinemast GmbH,078e5e52-1411-4119-8750-684031ce642c,H+V Schweinemast GmbH,53.8011025273105,11.735121579867101,Warin,146.0,19417,Wilhelmshof Sitz 20,114400.0,17200.0,0,0
Agrargenossenschaft Kakerbeck e.G.,86750c2b-e5b1-4d03-88ed-b532d617a532,Agrargenossenschaft Kakerbeck e.G.,52.6723547691469,11.2854775023342,Kalbe/Milde OT Kakerbeck,150.0,39624,Wustrewer Straße 6,43600.0,10900.0,0,0
RemPig GmbH & Co Agrar KG,c452b854-56ae-4b68-8958-7a20b5143d4d,RemPig GmbH & Co Agrar KG,50.7632692092725,11.2186660210573,Remda-Teichel,146.0,4707,Ehrensteiner Straße 16,39800.0,13000.0,0,0
Agrargenossenschaft Beyern e.G.,543c8752-4d51-49e7-874c-710459b90d68,Schweinemast- und Milchviehanlage Beyern,51.6149576027394,13.2051664233449,Falkenberg/Elster,146.0,4895,Dorfstraße 1,13300.0,13300.0,1,1
Gebr. Wellen Schweinemastbetriebs GmbH,4d10cdec-41b0-4676-8280-664e2618ea1c,Schweinemastanlage Mönchpfiffel Gebr. Wellen Schweinemastbetriebs GmbH,51.371423598952106,11.3824673871383,Mönchpfiffel-Nikolausrieth,146.0,6556,Triftweg 1,177100.0,37700.0,1,1
Paul Elking,b819e4e1-c758-4e5a-bfee-f5efba8a56e7,Elking Hiltrud,52.509551763008005,8.22738058135402,Damme,146.0,49401,Teichstraße 14,56900.0,11000.0,1,1
Erzeugergemeinschaft Fleischschwein Groß Leine e.G.,bd98669a-1906-4a1f-a48f-4f49b708adae,Erzeugergemeinschaft Fleischschwein Groß Leine e.G.,51.9953681423882,14.073858696796,Märkische Heide,150.0,15913,Siegadler Straße 6,79600.0,15300.0,0,0
egga GmbH & Co.KG,696e01bd-4e33-4406-ad71-f9750ae7f56c,Legehennenanlage Farm Bissel,52.94887899407189,8.154875869290331,Großenkneten,147.0,26197,Ringstraße 1,46800.0,11700.0,0,0
"Querfurter Frischei GmbH & Co. KG - Farnstädt, Köhlerweg",75071bf0-bac6-45bf-af3c-77012c32234f,"Querfurter Frischei GmbH & Co. KG - Farnstädt, Köhlerweg Querfurter Frischei GmbH & Co. KG - Farnstädt, Köhlerweg",51.431004280581504,11.5492138852617,Farnstädt,147.0,6279,Köhlerweg None,106000.0,10300.0,0,0
Donaulegefarmen GmbH & Co. KG,431f8d78-4c7f-437c-a7f1-4a1733495aa7,Donaulegefarmen GmbH & Co. KG - Betrieb Leiterkofen,48.9710040661777,12.285341589052,Pfatter,147.0,93102,Beim Jägerhaus 4,20600.0,10300.0,0,0
"Scherbring, Clemens",a34aca67-e3e3-4e5d-90a6-2ddd6c0f4e1d,"Scherbring, Clemens",52.7253760662959,7.90201010939913,Essen (Oldenburg),146.0,49632,Gravenhorster Weg 1,59000.0,11800.0,1,1
BLL Agrar GmbH,f7c981b6-22dc-47d7-8ff9-4bb1d5ea7802,Schweinemastanlage Züsow,53.925126838055704,11.679702165954303,Züsow,146.0,23992,Flur 1,57600.0,12500.0,0,0
Betriebsgemeinschaft Franz Kratzer & Martin Rauch,df111278-dbb6-4925-8ab7-cee6644ca258,Betriebsgemeinschaft Franz Kratzer & Martin Rauch,48.574725118584006,10.7862648521067,Kühlenthal,146.0,86707,Anzenhof None,56000.0,17900.0,1,1
SNU Schweinemast Nuthe-Urstromtal GmbH,d8a5feeb-40ab-4c88-94c4-bc5fa154af1f,SNU Schweinemast Nuthe-Urstromtal GmbH,52.1382242465141,12.9933357198323,Nuthe-Urstromtal,146.0,14947,Kemnitzer Hauptstraße 2,20200.0,10100.0,0,0
Stefan Wille-Niebur Schweinemast Plate,4afc49c5-8a54-4f0c-bc55-f4143e453697,Stefan Wille-Niebur Schweinemast Plate,53.5616892042837,11.4871937421892,Plate,146.0,19086,Friedrich-Wehmer-Straße 2a,21200.0,10600.0,0,0
Geflügelhof Möckern Zweigniederl. der Lohmann & Co. AG,3389a367-8baa-43c8-8df2-6686a223f49a,Hähnchenmastanlage Bassin,54.094451653094595,12.937616699958,Wendisch Baggendorf,147.0,18513,Dorfstraße 44,230400.0,44700.0,0,0
WENTOWSEE Agrar und Tierzucht GmbH,789764d8-74ee-41a0-93ea-e75c5afd8191,WENTOWSEE Agrar und Tierzucht GmbH,53.033828099104795,13.2021887226172,Gransee,146.0,16775,Ribbecker Weg 11,53400.0,11000.0,1,1
Janßen Schweinemast KG,270d5311-5a5a-44c6-9635-463665873031,Janßen Schweinemast KG,51.4263142244976,6.2973248385274605,Straelen,146.0,47638,Körversweg 7,66800.0,12400.0,1,1
Schweinezucht Großmühlingen GmbH,6c538302-6f2a-4814-b765-a439f91bc427,Schweinezucht Großmühlingen GmbH,51.952293474188394,11.7261555649245,Bördeland OT Großmühlingen,146.0,39221,An der Ölmühle 1,20800.0,10400.0,1,1
GbR Müller-Paul-Viebrock,0df2365e-49d7-42c8-adbf-652d5fcd4fee,GbR Müller-Paul-Viebrock,53.4679922619964,10.9679206927739,Vellahn,146.0,19246,Kogeler Weg 34,65500.0,13100.0,1,1
Pagenstert Mast GmbH,8e9a1edc-a73a-4ce3-a35d-ef13cd9d4702,Pagenstert Mast GmbH,52.71533619132161,8.21611085509512,Lohne (Oldenburg),146.0,49393,Dinklager Landstraße 49,11000.0,11000.0,1,1
Grethener Qualitätsfleisch GmbH,10fa3919-eec6-41ab-bcc8-0d75135280d5,"Grethener Qualitätsfleisch GmbH, SMA Grethen",51.213330165577794,12.6539431148368,Großbuch,146.0,4668,Am Spitzen Berg None,108000.0,26900.0,0,0
"Schulze Lohoff, Martin",3661db5b-7909-42e5-94ce-25f51b8b346f,"Schulze Lohoff, Martin",52.0497718505365,7.38361551064672,Laer,146.0,48366,Altenberger Str. 6,85600.0,21400.0,1,1
SMA Alt Zachun GmbH,58467dd8-eb19-4a07-8911-dbb3f8ab2319,SMA Alt Zachun SMA Alt Zachun GmbH,53.51161950819221,11.3088313048758,Bandenitz,146.0,19230,Am Besendorfer Berg 1,298700.0,58900.0,1,1
Thorsten Gehle,2112a4ed-c100-429a-8b55-abadf0c85bbf,"Gehle, Thorsten",52.48555890461601,9.02560919072307,Stolzenau,146.0,31592,Müsleringen None,38700.0,12900.0,1,1
Agrargenossenschaft Doberschütz e.G.,5c061188-9926-484f-9a03-d0b2ca027825,"Agrargenossenschaft Doberschütz e.G., SMA Doberschütz",51.502364281964795,12.7492446827737,Doberschütz,146.0,4838,Martha-Brautzsch-Str. 46,51000.0,12700.0,0,0
Schweineproduktion Hohengandern GmbH,c0ddec5f-e0a5-4920-9a91-03d1354363ba,Schweineproduktion Hohengandern GmbH,51.368540553057,9.954884711644107,Hohengandern,146.0,37318,Gerbershäuser Straße 116,11600.0,11600.0,0,0
August Rietfort,c6a80501-610d-44b9-b46c-aa0cc5e65966,Rietfort August,52.014275663110105,6.88289770473272,Stadtlohn,146.0,48703,Hengeler 11,140100.0,29300.0,1,1
Nottmeier Agrar GmbH,03c8101c-b301-4a8f-8600-fe9772a055dd,Nottmeier Agrar GmbH,53.0765678051178,13.9222500235311,Angermünde,146.0,16278,Peetzig 4,64000.0,13100.0,1,1
Drewitzer Sauenhaltungs GmbH & Co. KG Dr. Rudolf Lüdemann,e26b6032-e3a9-47c0-8f22-fcfca1c03065,Drewitzer Sauenhaltungs GmbH & Co. KG Dr. Rudolf Lüdemann,52.2078617212004,12.1587949217727,Drewitz,146.0,39291,Lübarser Str. 11,56000.0,11200.0,0,0
"Albersmeier, Klaus",cb7c33e3-d3d4-4c58-b6c7-2f734e865bd2,"Albersmeier, Klaus",51.6195376362369,8.1421689046453,Lippetal,146.0,59510,Hüttinghauser Weg 10,59100.0,15200.0,1,1
Franz Luginger,033f3245-39a4-4a32-99b8-d5db3e41830a,Franz Luginger,48.659354661338604,12.092184007618,Hohenthann,146.0,84098,Penkofen 3,67800.0,11400.0,1,1
Andrea Wehrs,84f43902-ad0b-42d7-8f95-bef18c510d86,"Wehrs, Andrea",52.54168930015121,8.91030515270015,Uchte,146.0,31600,Hoysinghausen 91,30900.0,10300.0,1,1
"Fährenkämper, Bernhard und Maria",752e0a49-f332-4a35-a2ca-3daa96ad1447,"Fährenkämper, Bernhard und Maria",51.932713376309,7.9462201285828,Warendorf,146.0,48231,Walgern 13,57500.0,11500.0,1,1
"Schulze Havixbeck, Jan-Bernd",4ed32f6a-a46c-4441-babb-958cc2c49486,"Schulze Havixbeck, Jan-Bernd",52.0071422025197,7.46842067737066,Altenberge,146.0,48341,Waltrup 151,68800.0,17200.0,1,1
Geflügelhof Wittenmoor GbR,4e7fc69a-213f-493c-846a-6c75099035c2,Geflügelhof Wittenmoor GbR,52.547821183703796,11.6918461428006,Hansestadt Stendal,147.0,39576,Am Mühlenfeld 4,42000.0,21000.0,0,0
Geratal Agrar GmbH & Co. KG Andisleben,47c990d4-a9a9-417e-b271-1a06b3a1c772,Geratal Agrar GmbH & Co. KG / Schweine Ringleben,51.10735169215779,10.9611548515903,Ringleben,146.0,99189,Haßlebener Str. None,134700.0,27900.0,0,0
Karl Schüer,332ad98e-0358-444e-9b12-3c6704b1e768,"Schüer, Karl",52.0367779747793,7.18185878171795,Rosendahl,146.0,48720,Asbecker Str. 32,72500.0,14500.0,1,1
DEMVA GmbH,1d8cfb42-115a-405e-a40d-2382d3d55934,Demva GmbH,53.9208984561347,11.899058914488899,Bernitt,146.0,18249,Bützower Straße Ausbau 52,316700.0,11200.0,0,0
"Agrarproduktion ""Elsteraue"" GmbH & Co. KG",d3aa2f4b-44c6-4d36-b2ea-bf18ea2efc82,"Agrarproduktion ""Elsteraue"" GmbH & Co. KG",51.1916540418289,12.339224990169498,Zwenkau,146.0,4442,Viehweg 2,117500.0,19000.0,0,0
"Rohlmann GbR, Mark und Heinz",c1d264bc-a677-421b-b9ed-3de91935f389,"Rohlmann GbR, Mark und Heinz",51.935673471435,7.743039458907258,Münster,149.0,48167,Kreuzbach 30,29800.0,29800.0,1,1
Schweinzucht Karft GmbH & Co.KG,7b023554-dcc0-4f2f-ad61-3d37d105148b,Schweinezucht Karft GmbH & Co.KG,53.532066173143605,11.0530170568757,Wittendörp,146.0,19243,Frachtweg 1,43600.0,11300.0,0,0
Görtz Kublank GmbH & Co. KG,f079eb17-2d3a-4d2c-be3a-007fb786ca53,Schweineanlage Kublank,53.5507702843874,13.5061064062326,Kublank,146.0,17349,Dorfstraße 40 b,198100.0,48100.0,1,1
Rainer Noack,cf92b8f8-079f-4f08-a4d6-42d404834d08,Schweinemastanlage Jocksdorf,51.6649435175299,14.5976100007576,Neiße-Malxetal,146.0,3159,An der B 115,76300.0,11800.0,0,0
FLESIMA Fleischschweinemast GmbH,08e8a62f-ce8f-421a-950b-a989e6706d2e,Schweinemastanlage Langenwetzendorf,50.6898731391171,12.1102862542871,Langenwetzendorf,146.0,7957,In der Haardt 1,364000.0,72800.0,1,1
"Hartwig, Robert",5ed3eb4d-b545-407e-930d-55712ff20f9a,"Hartwig, Robert",51.777201765815704,8.09948039282999,Beckum,146.0,59269,Höckelmer 11,52000.0,10400.0,1,1
Heinrich Bolte,56d907bb-44a0-4be6-8892-31d979061542,Heinrich Bolte,52.832745753452215,8.854889616966721,Bassum,146.0,27211,Neubruchhausen None,42000.0,10500.0,1,1
Schweinezucht Morgenrot GmbH,2c7a8861-cd18-4cb1-8d73-197704d24529,Schweinezucht Morgenrot,51.7890903202536,11.207174859012499,Quedlinburg,146.0,6484,An der B6 None,70000.0,14200.0,1,1
"Kohl GbR, Kelheim",5247142b-fe01-4fec-b6f6-a0e11a55dbf5,"Amberger Frischeier GbR, Kelheim",48.910606298750714,11.7601252400802,Kelheim,149.0,93309,Gut Schwaben 5,33400.0,16700.0,0,0
"Heyringhoff, Bernd",3d6423db-5a81-45e8-9e5c-b39a44b4ffae,Geflügelhof Wenigenlupnitz,50.9814917171772,10.4248243917164,Hörselberg-Hainich,147.0,99820,Fischgasse 100,52900.0,12000.0,0,0
Fläminger Tiergut GmbH,567507ed-18e0-44e1-838e-a1b121df4181,Fläminger Tiergut GmbH,52.1787909857257,12.6412837296997,Bad Belzig,146.0,14806,Am Bach 2,251000.0,53700.0,0,0
Schweinemast BRA-DER GmbH,cb3dd19b-185f-4891-bd1d-0a7e7af24228,Schweinemast BRA-DER GmbH,52.6589680125942,13.4174481632705,Wandlitz,146.0,16348,Mühlenbecker Straße 8 b,102100.0,20600.0,0,0
"Füchtling, Anton",4c6ba709-77fb-43b6-984a-0977e338f2a7,"Füchtling, Anton",51.7996279542356,7.63950618751104,Ascheberg,146.0,59387,Daverthauptweg 19,54400.0,14400.0,1,1
Dan-Mast Rubkow GmbH,4f3ef7bd-edb9-4882-abf0-f56b410dfb1f,Dan-Mast Rubkow GmbH Dan-Mast Rubkow GmbH,53.9386692665584,13.7257365972489,Rubkow,146.0,17390,Dorfstraße 8,169700.0,36800.0,1,1
Hofverwaltung Tützpatz,985c8490-9070-422d-86be-318c0e911dc2,Schweinemastanlage Tützpatz,53.71933394878899,13.1420513261201,Tützpatz,146.0,17091,Demminer Str. 8,107400.0,22900.0,0,0
"Wiechmann, Ingo",16396dea-1af9-496a-b260-b3e0a0d3e857,Schweinezuchtanlage Wiechmann GbR,54.0179126482228,12.257640837438199,Dummerstorf,146.0,18196,Alte Reihe 30,40400.0,10100.0,1,1
"Kathmann, Paul",663c0fe3-f978-4413-b26a-a5d63a9d63a8,"Kathmann, Paul",52.773638190099796,7.994573196340799,Lastrup,146.0,49688,Landwehr 43,62800.0,16000.0,1,1
Ferkelgut Pinnow GmbH & Co. Produktions KG,42b6bb80-ea5c-4635-bb78-57ec844b13d8,Ferkelgut Pinnow GmbH & Co. Produktions KG,53.20713291871351,11.6117165156287,Karstädt,146.0,19357,Pinnower Lindenstraße 1,44900.0,11900.0,0,0
"Vorwerk GbR, Franz-Josef Vorwerk , Franz-Josef",b4e18372-57a3-4242-817b-44c08a621839,"Vorwerk GbR, Franz-Josef Vorwerk , Franz-Josef",52.8284180428278,8.08614946026749,Cloppenburg,146.0,49661,Cappelner Damm 90,59000.0,11800.0,1,1
Andreas Meyer,0ae3c2fc-595e-46f2-80ab-5b13a125f5f0,"Meyer, Andreas",52.180033956351394,6.9868023074935,Gronau,146.0,48599,Kottiger Hook 62,96600.0,17600.0,1,1
Theodor Haseke,f437ea22-022b-4c30-96b6-f97dd9132ab3,Theodor Haseke,51.6122670298487,6.90295982090482,Bottrop,146.0,46244,Grotenweg None,67300.0,14200.0,1,1
"Brünjes KG, Brokser Agrar KG, Mys-Brü GbR",df71d321-3bb2-41e7-97b7-feb9b02bb5ae,Hauke Brünjes,52.8432713000593,9.00599823576335,Bruchhausen-Vilsen,146.0,27305,Am Hauptkanal None,58700.0,14700.0,1,1
"Hüttemann, Hugo",e71a3f8d-135c-41b8-aabb-7c90192ffeb3,"Hüttemann, Hugo",52.074744029259215,7.85319970035627,Ostbevern,146.0,48346,Brock 41,11000.0,11000.0,1,1
Zucht Mast GmbH Schlenzer,6a486cd0-e47a-464b-aa64-a3e39529bf4d,Zucht Mast GmbH Schlenzer,51.952745987810495,13.184110744905901,Niederer Fläming,146.0,14913,Fröhdener Weg 4,65700.0,14300.0,1,1
"Agrargenossenschaft ""Ländeken"" Meinsdorf e.G.",4bc047e4-c13e-4a40-ba91-4cf0f4cb3f30,"Agrargenossenschaft ""Ländeken"" Meinsdorf e.G.",51.85158144478379,13.2655646140655,Niederer Fläming,146.0,14913,Dorfstraße 67,46300.0,12000.0,1,1
"Altenau, Hubertus",4211921a-23f8-4693-a01b-a28b72a211c4,"Altenau, Hubertus",51.8157288776413,7.746800653070902,Drensteinfurt,146.0,48317,Natorp 12,56400.0,13100.0,1,1
Spreewälder Ferkelproduktions GmbH,5d034f97-5fc3-4253-946d-0573cf99fbc4,Spreewälder Ferkelproduktions GmbH,51.974320974156896,13.8395760833042,Lübben (Spreewald),146.0,15907,Hauptstraße 35,44600.0,13400.0,1,1
GlüxxSwin GbR,36f7bb66-14ac-445a-8e17-68f02817de86,agrinova GmbH & Co.KG,52.9365285481143,10.810411998092999,Suhlendorf,146.0,29562,Außenbereich None,109000.0,21800.0,0,0
Thijssen - Tierzucht GmbH ehem. Ferkelhof Pätzold,c42cdd3c-1d50-44c8-a73e-af5827dbca87,Thijssen - Tierzucht GmbH ehem. Ferkelhof Pätzold,51.3536879366236,13.988625932291301,Schwepnitz,146.0,1936,Großgraber Weg 3,22000.0,11000.0,0,0
Ansgar gr. Austing,bb95164f-f98a-422f-8f3a-66a4f929d868,Ansgar gr. Austing,52.5305903309485,8.38561765315627,Lembruch,146.0,49459,Rottweg 91,65200.0,13100.0,0,0
Hubertushof-Bodenei GmbH & Co. KG,582706de-fc0d-4115-a7d3-250b5833f884,Farm Hubertus,49.2246535766769,12.2895533891786,Nittenau,147.0,93149,Sulzmühl None,37800.0,18900.0,0,0
Schweinezucht Lutten GmbH & Co.KG,1f585f3b-cc60-4e03-b224-01e46ccf0f16,Schweinezucht Lutten,52.7603989777702,8.32348244145123,Goldenstedt,146.0,49424,Weststraße 20,61300.0,12800.0,0,0
"Dr. Peus, Charlotte",71f614a0-faf2-4730-97be-ba4b78171251,"Dr. Peus, Charlotte",51.547029929669705,8.42540498899474,Rüthen,146.0,59602,Gut Ringe 1,19200.0,19200.0,0,0
Detlev Tucholski,ad2b36ca-8afb-462c-a97a-f4c5b1fc112d,Ferkelhof Rohlstorf KG,53.9206990706371,11.531483086531301,Hornstorf,146.0,23974,Bahnhofsweg 4,18200.0,18200.0,1,1
"Behrens ,Heinz",57b6e6b2-c5df-4e95-b343-48b632926f59,"Behrens, Heinz",52.96497633182121,8.06327581627625,Garrel,147.0,49681,Schuldamm 1 A,97400.0,18200.0,1,1
Wocheslander Robert,55eb88f1-5a55-4ba0-9634-b45477de4a6b,Wocheslander Robert,48.740474127005704,12.1149695816557,Neufahrn i.NB,146.0,84088,Walpersdorf 2,69800.0,17700.0,1,1
Markus Lüns,e36fb01b-55ed-4aa8-874a-dfd9484deb9c,Martin Lüns,51.61163349018029,8.75434332765502,Lichtenau,146.0,33165,Dammstr. 200,15100.0,15100.0,1,1
"Lemmermöhle, Heiner",39770a5c-35b9-4e2c-a237-40973209d899,"Lemmermöhle, Heiner",52.5138307321207,7.939446068243162,Alfhausen,146.0,49594,Mühlenstraße 1,31200.0,10400.0,1,1
"Schulze Pals, Paul",c8f0eae5-5daa-447b-9502-98ea310ccdd4,"Schulze Pals, Paul",51.77851718552829,7.48388708102033,Lüdinghausen,146.0,59348,Westrup 13,93600.0,17600.0,1,1
Landwirtschaftsbetrieb Hans-Joachim Schulz,b31b5ed6-08d2-44d2-b3b7-25e25d09dced,Landwirtschaftsbetrieb Hans-Joachim Schulz,52.7412472966489,14.1739775665573,Oderaue,147.0,16259,Neumädewitz 40a,32200.0,18400.0,0,0
Köcher & Meuser KG,ca16534b-1cfe-4bfe-b8c9-072f4bdf6073,Köcher & Meuser KG,52.1357265750639,11.1305587545053,Badeleben,146.0,39393,Üplinger Str. 6,213400.0,43700.0,0,0
Schweinemast Schadow GmbH,e8536757-9788-4784-af60-93bb59b932d0,Schweinemast Schadow GmbH,52.0443775667035,14.2751179965712,Friedland,146.0,15848,Schadow 19,50000.0,12500.0,0,0
ALFRA Geflügel GmbH & Co. Besitz KG,5fdb43bb-282f-407f-b38e-1412b9ecf13c,WIMEX Geflügel Sachsen GmbH Elterntierhaltung,51.528342114462994,12.7622083588412,Mockrehna,147.0,4838,None None,174800.0,44500.0,0,0
Schweinemast Steimke GmbH,dd48d5ba-1d1f-4eb9-8f87-53d21f7d4ac7,Schweinemast Steimke GmbH,52.59545523995621,10.971447597868,Klötze/ OT Steimke,146.0,38486,Vordorf 14c,56800.0,14200.0,1,1
Winfried Närmann,0d5e98ee-d693-4f5b-9f23-63152d301485,"Närmann, Winfried",51.8081711332039,7.565444342084991,Senden,146.0,48308,Kreuzbauerschaft 9,69600.0,15700.0,1,1
v. Wendorff KG DaWa,f98445f6-87af-422c-a73a-0693575df5f0,v. Wendorff KG DaWa,53.963469282487495,12.5503034323665,Walkendorf,146.0,17179,Dorfstraße 59a,80300.0,14900.0,1,1
BUDISSA Agrar GmbH Kubschütz,f5a0628c-390f-4958-96b5-f020006896d9,BUDISSA Agrar GmbH,51.16291454595,14.5669263440403,Hochkirch,146.0,2627,Pommritz 5a,41100.0,10200.0,0,0
Tobias Winnige,73af7991-1f29-4469-869a-a81514919143,Tobias Winnige,52.6174860033109,14.302157633520201,Letschin,147.0,15324,Neu-Rosenthal 10,62800.0,15700.0,1,1
Agrargenossenschaft mbH Lübesse,e34ff209-cc04-4c50-a3aa-6e146154c4a8,Agp Lübesse Agrarproduktgesellschaft mbH  Hähnchenmast / Rinderanlage Mirow,53.4907968505378,11.4925338856052,Banzkow,150.0,19079,Am Moosberg 1,59800.0,11900.0,0,0
Joachim Klette,83f95ce2-c77d-41fd-a711-75f99acdd2f8,Domäne Alikendorf GbR,51.985259027108,11.2862525172069,Oschersleben OT Alikendorf,146.0,39387,Hadmerslebener Str. 7,43600.0,10900.0,1,1
MET Brutei KG,63249af7-67bd-4349-81bb-edbc2f1a2928,MET Brutei KG,51.2092521344193,13.1013235860562,Ostrau,147.0,4749,Gaschütz 1,101000.0,50500.0,0,0
Martina und Friedrich Neuling,6b6f560d-8433-4e84-92f9-32d35275b8d9,Zuchtläuferproduktion Schwiesau Martina und Friedrich Neuling,52.589200138845904,11.2750935177285,Klötze,146.0,39638,Zu den Hellbergen None,21700.0,10600.0,0,0
Van Asten Tierzucht Nordhausen GmbH & Co. KG,9e914e0e-0270-4fea-8835-35c38cd31dca,Van Asten Tierzucht Nordhausen GmbH & Co. KG,51.4803590511547,10.7893132168645,Nordhausen,146.0,99734,Kommunikationsweg 11,620000.0,130000.0,1,1
"Rohkamp, Manjo",00e3903c-092c-4e65-89d8-855639c59022,"Rohkamp, Manjo",51.866538687730795,7.10882987867731,Coesfeld,146.0,48653,Letter Bruch 15,47200.0,11800.0,1,1
Karl-Heinz Lönnecker Karl-Heinz Lönnecker,24191e7d-99a6-4d36-a2f5-0d4bd588d188,Karl-Heinz Lönnecker Karl-Heinz Lönnecker,51.963607434863995,9.33959137118133,Bad Pyrmont,146.0,31812,Windmühlenstraße 22,68000.0,13600.0,0,0
"PMF GmbH, Industriering 10a 49393 Lohne",548c986b-1e12-4269-9daf-f2f76af476e8,PMF GmbH,52.003197781362715,8.31097931665529,Steinhagen,147.0,33803,Kölkebecker Str. 41,66500.0,13300.0,0,0
Tierproduktionsgesellschaft Thimmendorf mbH (TGT),e42c91dc-0abb-451f-8ac3-01363f2aa486,Tierproduktionsgesellschaft Thimmendorf mbH (TGT),50.54837174988621,11.561823258992,Remptendorf,146.0,7368,Thimmendorf Nr. 37,97600.0,22500.0,1,1
Volker Schmitt,987e2afe-5cb4-4113-a288-b3ead878cd1e,AHVG mbH Fienstedt,51.5626617291535,11.789530329463501,Salzatal,146.0,6198,Dorfstraße None,69500.0,13900.0,0,0
"Austing gr., Franz",1ac5f80f-1c97-4e9b-a2f4-94962b504083,Austing gr. Franz,52.5311358474553,8.25944888035048,Damme,146.0,49401,Oldorf 14,39300.0,12700.0,1,1
Pelapro Ferkelproduktion GmbH Zollchow,97c4d670-6e6c-4d76-8a5b-8394610cd66f,Pelapro Ferkelproduktion GmbH Zollchow,52.5233064019685,12.2110942285826,Milower Land,146.0,14715,Galmer Straße 1 a,59200.0,14800.0,0,0
Schweinemastanlage Todendorf e.G.,f313b419-361f-4044-aaac-0b2d2c146dee,Schweinemastanlage Todendorf e.G.,53.8285817503936,12.5763152141037,Thürkow,146.0,17168,An der Landstraße 24,189300.0,36600.0,1,1
Tierzucht Gut Losten GmbH & Co. KG,170a4c30-2428-454f-82ac-2a5ae89e23dc,Tierzucht Gut Losten GmbH & Co. KG,53.80009541145501,11.4651480454581,Bad Kleinen,146.0,23996,Häuslerreihe 28,678000.0,155000.0,1,1
"Gut Groß Langerwisch Hölscher, Leuschner",56ce22e1-104b-4e3d-b36d-ed055cf458aa,"Gut Groß Langerwisch Hölscher, Leuschner, Quittmann GbR",53.1759974280058,12.0998576124823,Groß Pankow (Prignitz),146.0,16928,Gutshof 1,130500.0,26100.0,0,0
Landwirtschaft Wallhausen GmbH &. Co. KG,b59ec611-f2bd-4de9-8cb4-9d3fd3254c18,Landwirtschaft Wallhausen GmbH u. Co. KG,51.4638901967003,11.2130110475718,Wallhausen,146.0,6528,Salzhügel None,87000.0,18000.0,1,1
"Schulze Austrup-Streyl, Hubert",6f8c38f3-3e78-4558-a0b0-007aeda6cc2d,"Schulze Austrup-Streyl, Hubert",51.8209522890956,7.488919739979808,Senden,146.0,48308,Gettrup 15a,49800.0,12400.0,1,1
Schweineproduktion Drebach GmbH,9cd6b180-707e-4c10-a7be-396a81db92aa,Schweineproduktion Drebach GmbH,50.6854570913332,13.0208439225487,Drebach,146.0,9430,Teichweg 7,58700.0,10900.0,0,0
Josef Farwick,bce1b65e-3d6f-4fee-a591-d14a6b993288,"Farwick, Josef",51.730238562668504,7.44126415676215,Lüdinghausen,146.0,59348,Tüllinghoff 30,47600.0,11800.0,1,1
Exeler Schweineaufzucht GbR,06b1c75b-b89b-464d-8044-4a4f81106cc9,Exeler Schweineaufzucht GbR,52.30947366179881,7.49437095608927,Rheine,146.0,48432,Am Bruchgraben 5,141000.0,32800.0,1,1
Schweinemast VEKRA GmbH,83bc9e2a-6d7b-43c8-a93a-a7444662c5e2,Schweinemast VEKRA GmbH,52.1132651670376,13.049768140130501,Nuthe-Urstromtal,146.0,14943,Zülichendorfer Landstraße 2,50500.0,10100.0,0,0
Ulrich Holle,d148eb76-255c-4d98-ad12-e8c1047ddee5,"Holle, Ulrich",51.9165045142031,7.45189178253379,Senden,146.0,48308,Kley 19,23200.0,11900.0,1,1
Kummerower Schweineproduktion GmbH & Co. KG,1f08df7d-ee23-443e-aec9-99a74c01b6fb,Schweinemastanlage Kummerow,53.765777555530214,12.834787439221401,Kummerow,146.0,17139,Dorfstraße 69,69800.0,13900.0,0,0
Stödtener Qualitätsschweine GmbH,5e0f3cf7-26c5-4f52-8d7a-c0daeb9703f9,Stödtener Qualitätsschweine / SMA Stödten,51.1874381264388,11.174766124095699,Sömmerda,146.0,99610,Friedensstr. 1a,133400.0,26800.0,0,0
Hederslebener Zucht- u. Mastbetrieb GmbH & Co.KG,afb26f6b-13cc-4fc9-93f4-bea697cad6dc,Hederslebener Zucht- u. Mastbetrieb GmbH & Co.KG,51.8544558029051,11.261766615372698,Hedersleben,146.0,6458,Schadelebener Weg None,37200.0,12700.0,0,0
Eistrup Heinrich,6b945c51-c8b6-4d68-b786-2e62fe67c801,Eistrup Heinrich,52.3911747316936,7.15720099064296,Engden,146.0,48465,Nordhorner Str. 1,42000.0,10500.0,1,1
"Geflügelhof Schwanheide GmbH, Hauptstr. 8, 48496 Hopsten-Halverde",14909cc3-8a1c-4e42-9c31-70c3eb7de57c,Geflügelhof Schwanheide GmbH Legehennenanlage Leckwitz,51.345249485207795,13.183732027333301,Liebschützberg,147.0,4758,Am Wasserturm 3,30900.0,10300.0,0,0
Thomas Schulze Temming,b2ce652b-fb4e-44c9-b2d0-4770e491c247,"Schulze Temming, Thomas",52.007282359751905,7.39983393836192,Billerbeck,146.0,48727,Temming 1,81100.0,18600.0,0,0
Heinrich Thiermann,fa29ed74-c68d-4a38-a30d-60a89c71d58e,Thiermann Gartenbau GmbH Heinrich Tiermann,52.5891992388607,8.80378052106024,Kirchdorf,146.0,27245,Scharringhausen 23,65200.0,11300.0,1,1
Falk Voß-Hagen,a38410c9-425e-44cc-81c1-61e1a2fd032b,Fehmarn-Hof Schweinehaltungs-KG,54.4874631428641,11.059347675281801,Fehmarn,146.0,23769,Schlagsdorfer Straße None,28000.0,14000.0,1,1
Drentweder Porc GmbH,449263f1-1d6b-4dd4-a482-769f9f3f8a8a,Drentweder Porc GmbH,52.737691490636905,8.53479307841551,Drentwede,146.0,49406,Diekhaus None,53200.0,13300.0,0,0
Landboden Wolde GmbH & Co. LandwirtschaftsKG,106b530e-ff29-4d44-9a72-750b30cdfd8b,Hähnchenmastanlage Wolde I,53.6820504320885,13.0808802522543,Wolde,147.0,17091,Stavenhagener Straße 12,27400.0,27400.0,1,1
Frank Ehlers,793c4e53-9486-4a22-aac4-78578fa7a85e,Frank Ehlers,52.7671271467746,8.62721635539708,Twistringen,146.0,27239,Borwede None,67000.0,17800.0,1,1
Meierjohann Friedrich,9bd70e59-0beb-4785-97a4-26196ba1617f,Meierjohann Friedrich,52.02116576866681,8.962429771809312,Lemgo,146.0,32657,Am Brink 54,44800.0,10600.0,1,1
Sauenzuchtanlage Parkentin,e5e49358-f4df-44cb-bcb1-ffa357978490,Sauenzuchtanlage Parkentin Sauenzuchtanlage Parkentin,54.0877707067819,11.980618927676401,Bartenshagen-Parkentin,146.0,18209,Am Stegebach 34a,85500.0,16600.0,0,0
Johannes Geiger,4f84b1a7-98ef-49b8-a1ff-0d61a485bd00,Schweinemastanlage Domänenstrasse / Völlen,53.1013003356044,7.467415779280349,Westoverledingen,146.0,26810,Domänenstrasse 3,66800.0,14400.0,0,0
Agrar GmbH Langengrassau,b54be717-0388-445e-a18f-33e43351cb5e,Agrar GmbH Langengrassau,51.8275898405002,13.6346149885446,Heideblick,146.0,15926,Luckauer Str. 61b,35100.0,14100.0,1,1
"Götting, Hans",adc7d786-ca99-43ad-aa72-e452b2756526,"Götting, Hans",52.7214800974162,7.746639139042831,Löningen,146.0,49624,Angelbecker Straße 28,68600.0,14500.0,1,1
Schweinezucht Pappendorf GmbH & Co. KG,f8f75e20-6571-489d-b72a-c0c858803541,Schweinezucht Pappendorf GmbH & Co. KG,50.992589404123294,13.1970373460555,Striegistal,146.0,9661,Mühlstrasse 12,59800.0,13100.0,0,0
"Plate, Maik",f2c773ee-1b3b-463f-92d4-9b8395edd998,"Plate, Maik",52.83444255672161,8.45900433410636,Wildeshausen,146.0,27793,Garmhausen Haus 3,33900.0,11300.0,1,1
Hagemann Dienste GmbH,7cc17fbf-763f-4c06-b64a-873961bc1a25,Hagemann Dienste GmbH,53.12366355649079,12.1102908395934,Groß Pankow (Prignitz),146.0,16928,Kuhsdorf 102,89600.0,21300.0,1,1
"Limbeck, Gerd",52a5fcc3-fc21-4a37-834d-a557e5c019aa,Limbeck GbR Gerd,52.3574068844506,7.1994765108584415,Engden,147.0,48465,Schüttorfer Straße 17,51400.0,10300.0,1,1
